{"type": "FeatureCollection", "features": [{"type": "Feature", "properties": {"name": "Waterfront City Marina"}, "geometry": {"type": "Point", "coordinates": [103.9358784, 1.0821189]}}, {"type": "Feature", "properties": {"name": "Water Front City Sea port"}, "geometry": {"type": "Point", "coordinates": [103.9312518, 1.0788286]}}, {"type": "Feature", "properties": {"name": "Pelra Seberang Novotel"}, "geometry": {"type": "Point", "coordinates": [104.00122, 1.14977]}}, {"type": "Feature", "properties": {"name": "Pelantar Tg.Uma"}, "geometry": {"type": "Point", "coordinates": [104.00045, 1.14959]}}, {"type": "Feature", "properties": {"name": "\u0627\u0644\u0639\u0631\u064a\u0634"}, "geometry": {"type": "Point", "coordinates": [33.8310891, 31.1515017]}}, {"type": "Feature", "properties": {"name": "Obock \u0623\u0628\u062e"}, "geometry": {"type": "Point", "coordinates": [43.2978673, 11.9621267]}}, {"type": "Feature", "properties": {"name": "Club de Yates de Balboa"}, "geometry": {"type": "Point", "coordinates": [-79.5546436, 8.939307]}}, {"type": "Feature", "properties": {"name": "One 15 Marina"}, "geometry": {"type": "Point", "coordinates": [103.8397622, 1.245159]}}, {"type": "Feature", "properties": {"name": "Puerto Quimba"}, "geometry": {"type": "Point", "coordinates": [-78.0366162, 8.4169848]}}, {"type": "Feature", "properties": {"name": "Hussein Basin"}, "geometry": {"type": "Point", "coordinates": [32.312185, 31.2421235]}}, {"type": "Feature", "properties": {"name": "harbour"}, "geometry": {"type": "Point", "coordinates": [32.3020157, 31.2415543]}}, {"type": "Feature", "properties": {"name": "harbour"}, "geometry": {"type": "Point", "coordinates": [32.301447, 31.2356192]}}, {"type": "Feature", "properties": {"name": "harbour"}, "geometry": {"type": "Point", "coordinates": [32.3180429, 31.2704716]}}, {"type": "Feature", "properties": {"name": "\u0628\u0648\u0631\u0633\u0639\u064a\u062f"}, "geometry": {"type": "Point", "coordinates": [32.3092324, 31.2547346]}}, {"type": "Feature", "properties": {"name": "Sherif Basin"}, "geometry": {"type": "Point", "coordinates": [32.3025993, 31.2546523]}}, {"type": "Feature", "properties": {"name": "Naval Basin"}, "geometry": {"type": "Point", "coordinates": [32.3089505, 31.2586192]}}, {"type": "Feature", "properties": {"name": "Salt Basin"}, "geometry": {"type": "Point", "coordinates": [32.3083441, 31.2338767]}}, {"type": "Feature", "properties": {"name": "Ismail Basin"}, "geometry": {"type": "Point", "coordinates": [32.3113589, 31.2507366]}}, {"type": "Feature", "properties": {"name": "harbour"}, "geometry": {"type": "Point", "coordinates": [103.8222493, 1.2549778]}}, {"type": "Feature", "properties": {"name": "harbour"}, "geometry": {"type": "Point", "coordinates": [56.2748596, 25.6196745]}}, {"type": "Feature", "properties": {"name": "Tanjung Leman Jetty"}, "geometry": {"type": "Point", "coordinates": [104.0022208, 2.1488802]}}, {"type": "Feature", "properties": {"name": "harbour"}, "geometry": {"type": "Point", "coordinates": [99.682984, 6.3680038]}}, {"type": "Feature", "properties": {"name": "Lumut Marina"}, "geometry": {"type": "Point", "coordinates": [100.6400239, 4.2357188]}}, {"type": "Feature", "properties": {"name": "Bahman Port"}, "geometry": {"type": "Point", "coordinates": [56.2840349, 26.9478952]}}, {"type": "Feature", "properties": {"name": "\u0627\u0633\u06a9\u0644\u0647 \u0635\u06cc\u0627\u062f\u06cc"}, "geometry": {"type": "Point", "coordinates": [56.2649771, 26.9692749]}}, {"type": "Feature", "properties": {"name": "harbour"}, "geometry": {"type": "Point", "coordinates": [-79.5730028, 8.9511167]}}, {"type": "Feature", "properties": {"name": "harbour"}, "geometry": {"type": "Point", "coordinates": [-79.5356071, 8.9580784]}}, {"type": "Feature", "properties": {"name": "harbour"}, "geometry": {"type": "Point", "coordinates": [-79.5725395, 8.965279]}}, {"type": "Feature", "properties": {"name": "Garde-C\u00f4tes"}, "geometry": {"type": "Point", "coordinates": [43.132963, 11.5969726]}}, {"type": "Feature", "properties": {"name": "harbour"}, "geometry": {"type": "Point", "coordinates": [56.0278302, 25.8825732]}}, {"type": "Feature", "properties": {"name": "Royal Yacht Club"}, "geometry": {"type": "Point", "coordinates": [101.3885696, 3.0063451]}}, {"type": "Feature", "properties": {"name": "Pelabuhan Roro Bengkalis"}, "geometry": {"type": "Point", "coordinates": [102.1366531, 1.4499195]}}, {"type": "Feature", "properties": {"name": "PelabuhRoro Pakning"}, "geometry": {"type": "Point", "coordinates": [102.1503223, 1.3785379]}}, {"type": "Feature", "properties": {"name": "Port of Al Arish"}, "geometry": {"type": "Point", "coordinates": [33.8307789, 31.152444]}}, {"type": "Feature", "properties": {"name": "harbour"}, "geometry": {"type": "Point", "coordinates": [-78.5833592, 9.4455343]}}, {"type": "Feature", "properties": {"name": "Sohar Port and Freezone"}, "geometry": {"type": "Point", "coordinates": [56.6283788, 24.5104271]}}, {"type": "Feature", "properties": {"name": "Port of Balboa"}, "geometry": {"type": "Point", "coordinates": [-79.5666212, 8.9571411]}}, {"type": "Feature", "properties": {"name": "harbour"}, "geometry": {"type": "Point", "coordinates": [-77.7517136, 8.9469696]}}, {"type": "Feature", "properties": {"name": "harbour"}, "geometry": {"type": "Point", "coordinates": [-78.0289423, 9.2275906]}}, {"type": "Feature", "properties": {"name": "Marina Putrajaya"}, "geometry": {"type": "Point", "coordinates": [101.6707774, 2.9013718]}}, {"type": "Feature", "properties": {"name": "\u0628\u0627\u0631 \u0632\u0631\u06a9"}, "geometry": {"type": "Point", "coordinates": [56.0483006, 26.9647011]}}, {"type": "Feature", "properties": {"name": "\u0645\u064a\u0646\u0627\u0621 \u0627\u0644\u0645\u062e\u0627"}, "geometry": {"type": "Point", "coordinates": [43.2321989, 13.3112548]}}, {"type": "Feature", "properties": {"name": "harbour"}, "geometry": {"type": "Point", "coordinates": [32.4653822, 29.900103]}}, {"type": "Feature", "properties": {"name": "\u0645\u064a\u0646\u0627\u0621 \u0627\u0644\u0635\u064a\u062f \u0639\u0635\u0628"}, "geometry": {"type": "Point", "coordinates": [42.7438227, 13.0345002]}}, {"type": "Feature", "properties": {"name": "harbour"}, "geometry": {"type": "Point", "coordinates": [-77.6939021, 8.1560081]}}, {"type": "Feature", "properties": {"name": "\u062d\u0631\u0627\u062c  \u0627\u0644\u0645\u062e\u0627 1"}, "geometry": {"type": "Point", "coordinates": [43.2421609, 13.3235513]}}, {"type": "Feature", "properties": {"name": "harbour"}, "geometry": {"type": "Point", "coordinates": [102.8916915, 5.7960594]}}, {"type": "Feature", "properties": {"name": "harbour"}, "geometry": {"type": "Point", "coordinates": [102.8923231, 5.7946246]}}, {"type": "Feature", "properties": {"name": "harbour"}, "geometry": {"type": "Point", "coordinates": [102.8918775, 5.7930536]}}, {"type": "Feature", "properties": {"name": "Puerto de Vacamonte"}, "geometry": {"type": "Point", "coordinates": [-79.6699119, 8.8615069]}}, {"type": "Feature", "properties": {"name": "\u0627\u0633\u06a9\u0644\u0647 \u0635\u06cc\u0627\u062f\u200c\u06cc \u0631\u0645\u0686\u0627\u0647"}, "geometry": {"type": "Point", "coordinates": [56.1660676, 26.8990242]}}, {"type": "Feature", "properties": {"name": "Tekek Marina"}, "geometry": {"type": "Point", "coordinates": [104.1560403, 2.8181035]}}, {"type": "Feature", "properties": {"name": "\u0627\u0633\u06a9\u0644\u0647 \u0635\u06cc\u0627\u062f\u06cc \u0631\u0645\u0686\u0627\u0647"}, "geometry": {"type": "Point", "coordinates": [56.1671569, 26.8987941]}}, {"type": "Feature", "properties": {"name": "\u0627\u0644\u0643\u0648\u0646\u064a\u0633\u0647"}, "geometry": {"type": "Point", "coordinates": [33.8934794, 27.9324282]}}, {"type": "Feature", "properties": {"name": "\u0645\u062c\u0645\u0648\u0639\u0647 \u062a\u0641\u0631\u06cc\u062d\u06cc \u0645\u0627\u0646\u062a\u0627"}, "geometry": {"type": "Point", "coordinates": [56.2803699, 26.9493013]}}, {"type": "Feature", "properties": {"name": "Jeti Pak Ali"}, "geometry": {"type": "Point", "coordinates": [103.1015917, 5.3204202]}}, {"type": "Feature", "properties": {"name": "\u06a9\u0634\u062a\u06cc \u062a\u0641\u0631\u06cc\u062d\u06cc \u0627\u0628\u062a\u06cc\u0646 \u0648\u06cc \u0627\u06cc \u067e\u06cc"}, "geometry": {"type": "Point", "coordinates": [56.2815801, 26.9430173]}}, {"type": "Feature", "properties": {"name": "harbour"}, "geometry": {"type": "Point", "coordinates": [98.5498345, 2.8811167]}}]}