{"type": "FeatureCollection", "features": [{"type": "Feature", "properties": {"src": "JIB", "dst": "DXB"}, "geometry": {"type": "LineString", "coordinates": [[43.1595, 11.5473], [55.370992, 25.24979]]}}, {"type": "Feature", "properties": {"src": "HKT", "dst": "SIN"}, "geometry": {"type": "LineString", "coordinates": [[98.3174, 8.113257], [103.994003, 1.35019]]}}, {"type": "Feature", "properties": {"src": "KUL", "dst": "SIN"}, "geometry": {"type": "LineString", "coordinates": [[101.709999, 2.74558], [103.994003, 1.35019]]}}, {"type": "Feature", "properties": {"src": "PEN", "dst": "SIN"}, "geometry": {"type": "LineString", "coordinates": [[100.276185, 5.296303], [103.994003, 1.35019]]}}, {"type": "Feature", "properties": {"src": "SIN", "dst": "HKT"}, "geometry": {"type": "LineString", "coordinates": [[103.994003, 1.35019], [98.3174, 8.113257]]}}, {"type": "Feature", "properties": {"src": "SIN", "dst": "KUL"}, "geometry": {"type": "LineString", "coordinates": [[103.994003, 1.35019], [101.709999, 2.74558]]}}, {"type": "Feature", "properties": {"src": "SIN", "dst": "PEN"}, "geometry": {"type": "LineString", "coordinates": [[103.994003, 1.35019], [100.276185, 5.296303]]}}, {"type": "Feature", "properties": {"src": "CAI", "dst": "TLV"}, "geometry": {"type": "LineString", "coordinates": [[31.396694, 30.111534], [34.8867, 32.011398]]}}, {"type": "Feature", "properties": {"src": "TLV", "dst": "CAI"}, "geometry": {"type": "LineString", "coordinates": [[34.8867, 32.011398], [31.396694, 30.111534]]}}, {"type": "Feature", "properties": {"src": "BOC", "dst": "SJO"}, "geometry": {"type": "LineString", "coordinates": [[-82.250801, 9.34085], [-84.208801, 9.99386]]}}, {"type": "Feature", "properties": {"src": "GLF", "dst": "PJM"}, "geometry": {"type": "LineString", "coordinates": [[-83.182198, 8.65401], [-83.30000305175781, 8.533329963684082]]}}, {"type": "Feature", "properties": {"src": "PJM", "dst": "SJO"}, "geometry": {"type": "LineString", "coordinates": [[-83.30000305175781, 8.533329963684082], [-84.208801, 9.99386]]}}, {"type": "Feature", "properties": {"src": "PMZ", "dst": "SJO"}, "geometry": {"type": "LineString", "coordinates": [[-83.468597, 8.95103], [-84.208801, 9.99386]]}}, {"type": "Feature", "properties": {"src": "SJO", "dst": "BOC"}, "geometry": {"type": "LineString", "coordinates": [[-84.208801, 9.99386], [-82.250801, 9.34085]]}}, {"type": "Feature", "properties": {"src": "SJO", "dst": "GLF"}, "geometry": {"type": "LineString", "coordinates": [[-84.208801, 9.99386], [-83.182198, 8.65401]]}}, {"type": "Feature", "properties": {"src": "SJO", "dst": "PJM"}, "geometry": {"type": "LineString", "coordinates": [[-84.208801, 9.99386], [-83.30000305175781, 8.533329963684082]]}}, {"type": "Feature", "properties": {"src": "SJO", "dst": "XQP"}, "geometry": {"type": "LineString", "coordinates": [[-84.208801, 9.99386], [-84.129799, 9.44316]]}}, {"type": "Feature", "properties": {"src": "XQP", "dst": "PMZ"}, "geometry": {"type": "LineString", "coordinates": [[-84.129799, 9.44316], [-83.468597, 8.95103]]}}, {"type": "Feature", "properties": {"src": "XQP", "dst": "SJO"}, "geometry": {"type": "LineString", "coordinates": [[-84.129799, 9.44316], [-84.208801, 9.99386]]}}, {"type": "Feature", "properties": {"src": "BOC", "dst": "PAC"}, "geometry": {"type": "LineString", "coordinates": [[-82.250801, 9.34085], [-79.555603, 8.97334]]}}, {"type": "Feature", "properties": {"src": "CHX", "dst": "BOC"}, "geometry": {"type": "LineString", "coordinates": [[-82.515062, 9.458962], [-82.250801, 9.34085]]}}, {"type": "Feature", "properties": {"src": "DAV", "dst": "PAC"}, "geometry": {"type": "LineString", "coordinates": [[-82.436425, 8.388983], [-79.555603, 8.97334]]}}, {"type": "Feature", "properties": {"src": "DAV", "dst": "SJO"}, "geometry": {"type": "LineString", "coordinates": [[-82.436425, 8.388983], [-84.208801, 9.99386]]}}, {"type": "Feature", "properties": {"src": "PAC", "dst": "BOC"}, "geometry": {"type": "LineString", "coordinates": [[-79.555603, 8.97334], [-82.250801, 9.34085]]}}, {"type": "Feature", "properties": {"src": "PAC", "dst": "CHX"}, "geometry": {"type": "LineString", "coordinates": [[-79.555603, 8.97334], [-82.515062, 9.458962]]}}, {"type": "Feature", "properties": {"src": "PAC", "dst": "DAV"}, "geometry": {"type": "LineString", "coordinates": [[-79.555603, 8.97334], [-82.436425, 8.388983]]}}, {"type": "Feature", "properties": {"src": "SJO", "dst": "DAV"}, "geometry": {"type": "LineString", "coordinates": [[-84.208801, 9.99386], [-82.436425, 8.388983]]}}, {"type": "Feature", "properties": {"src": "ADZ", "dst": "PVA"}, "geometry": {"type": "LineString", "coordinates": [[-81.7112, 12.5836], [-81.357977, 13.357461]]}}, {"type": "Feature", "properties": {"src": "APO", "dst": "BOG"}, "geometry": {"type": "LineString", "coordinates": [[-76.7164, 7.81196], [-74.1469, 4.70159]]}}, {"type": "Feature", "properties": {"src": "APO", "dst": "EOH"}, "geometry": {"type": "LineString", "coordinates": [[-76.7164, 7.81196], [-75.590597, 6.219686]]}}, {"type": "Feature", "properties": {"src": "BOG", "dst": "APO"}, "geometry": {"type": "LineString", "coordinates": [[-74.1469, 4.70159], [-76.7164, 7.81196]]}}, {"type": "Feature", "properties": {"src": "BOG", "dst": "BUN"}, "geometry": {"type": "LineString", "coordinates": [[-74.1469, 4.70159], [-76.9898, 3.81963]]}}, {"type": "Feature", "properties": {"src": "BOG", "dst": "CZU"}, "geometry": {"type": "LineString", "coordinates": [[-74.1469, 4.70159], [-75.2856, 9.33274]]}}, {"type": "Feature", "properties": {"src": "BOG", "dst": "EOH"}, "geometry": {"type": "LineString", "coordinates": [[-74.1469, 4.70159], [-75.590597, 6.219686]]}}, {"type": "Feature", "properties": {"src": "BOG", "dst": "UIB"}, "geometry": {"type": "LineString", "coordinates": [[-74.1469, 4.70159], [-76.6412, 5.69076]]}}, {"type": "Feature", "properties": {"src": "BOG", "dst": "VVC"}, "geometry": {"type": "LineString", "coordinates": [[-74.1469, 4.70159], [-73.6138, 4.16787]]}}, {"type": "Feature", "properties": {"src": "BSC", "dst": "EOH"}, "geometry": {"type": "LineString", "coordinates": [[-77.3947, 6.20292], [-75.590597, 6.219686]]}}, {"type": "Feature", "properties": {"src": "BUN", "dst": "BOG"}, "geometry": {"type": "LineString", "coordinates": [[-76.9898, 3.81963], [-74.1469, 4.70159]]}}, {"type": "Feature", "properties": {"src": "CLO", "dst": "UIB"}, "geometry": {"type": "LineString", "coordinates": [[-76.381898, 3.542717], [-76.6412, 5.69076]]}}, {"type": "Feature", "properties": {"src": "CZU", "dst": "BOG"}, "geometry": {"type": "LineString", "coordinates": [[-75.2856, 9.33274], [-74.1469, 4.70159]]}}, {"type": "Feature", "properties": {"src": "EOH", "dst": "APO"}, "geometry": {"type": "LineString", "coordinates": [[-75.590597, 6.219686], [-76.7164, 7.81196]]}}, {"type": "Feature", "properties": {"src": "EOH", "dst": "BOG"}, "geometry": {"type": "LineString", "coordinates": [[-75.590597, 6.219686], [-74.1469, 4.70159]]}}, {"type": "Feature", "properties": {"src": "EOH", "dst": "BSC"}, "geometry": {"type": "LineString", "coordinates": [[-75.590597, 6.219686], [-77.3947, 6.20292]]}}, {"type": "Feature", "properties": {"src": "EOH", "dst": "UIB"}, "geometry": {"type": "LineString", "coordinates": [[-75.590597, 6.219686], [-76.6412, 5.69076]]}}, {"type": "Feature", "properties": {"src": "PVA", "dst": "ADZ"}, "geometry": {"type": "LineString", "coordinates": [[-81.357977, 13.357461], [-81.7112, 12.5836]]}}, {"type": "Feature", "properties": {"src": "UIB", "dst": "BOG"}, "geometry": {"type": "LineString", "coordinates": [[-76.6412, 5.69076], [-74.1469, 4.70159]]}}, {"type": "Feature", "properties": {"src": "UIB", "dst": "CLO"}, "geometry": {"type": "LineString", "coordinates": [[-76.6412, 5.69076], [-76.381898, 3.542717]]}}, {"type": "Feature", "properties": {"src": "UIB", "dst": "EOH"}, "geometry": {"type": "LineString", "coordinates": [[-76.6412, 5.69076], [-75.590597, 6.219686]]}}, {"type": "Feature", "properties": {"src": "VVC", "dst": "BOG"}, "geometry": {"type": "LineString", "coordinates": [[-73.6138, 4.16787], [-74.1469, 4.70159]]}}, {"type": "Feature", "properties": {"src": "AUH", "dst": "MCT"}, "geometry": {"type": "LineString", "coordinates": [[54.649237, 24.440966], [58.285268, 23.600218]]}}, {"type": "Feature", "properties": {"src": "KUL", "dst": "LGK"}, "geometry": {"type": "LineString", "coordinates": [[101.709999, 2.74558], [99.728699, 6.32973]]}}, {"type": "Feature", "properties": {"src": "KUL", "dst": "PEN"}, "geometry": {"type": "LineString", "coordinates": [[101.709999, 2.74558], [100.276185, 5.296303]]}}, {"type": "Feature", "properties": {"src": "LGK", "dst": "KUL"}, "geometry": {"type": "LineString", "coordinates": [[99.728699, 6.32973], [101.709999, 2.74558]]}}, {"type": "Feature", "properties": {"src": "MCT", "dst": "AUH"}, "geometry": {"type": "LineString", "coordinates": [[58.285268, 23.600218], [54.649237, 24.440966]]}}, {"type": "Feature", "properties": {"src": "PEN", "dst": "KUL"}, "geometry": {"type": "LineString", "coordinates": [[100.276185, 5.296303], [101.709999, 2.74558]]}}, {"type": "Feature", "properties": {"src": "AUH", "dst": "HKT"}, "geometry": {"type": "LineString", "coordinates": [[54.649237, 24.440966], [98.3174, 8.113257]]}}, {"type": "Feature", "properties": {"src": "AUH", "dst": "SIN"}, "geometry": {"type": "LineString", "coordinates": [[54.649237, 24.440966], [103.994003, 1.35019]]}}, {"type": "Feature", "properties": {"src": "HKT", "dst": "AUH"}, "geometry": {"type": "LineString", "coordinates": [[98.3174, 8.113257], [54.649237, 24.440966]]}}, {"type": "Feature", "properties": {"src": "SIN", "dst": "AUH"}, "geometry": {"type": "LineString", "coordinates": [[103.994003, 1.35019], [54.649237, 24.440966]]}}, {"type": "Feature", "properties": {"src": "DOH", "dst": "MCT"}, "geometry": {"type": "LineString", "coordinates": [[51.608056, 25.273056], [58.285268, 23.600218]]}}, {"type": "Feature", "properties": {"src": "MCT", "dst": "DOH"}, "geometry": {"type": "LineString", "coordinates": [[58.285268, 23.600218], [51.608056, 25.273056]]}}, {"type": "Feature", "properties": {"src": "AOR", "dst": "KUL"}, "geometry": {"type": "LineString", "coordinates": [[100.39800262451172, 6.189670085906982], [101.709999, 2.74558]]}}, {"type": "Feature", "properties": {"src": "BTJ", "dst": "KUL"}, "geometry": {"type": "LineString", "coordinates": [[95.41997, 5.525087], [101.709999, 2.74558]]}}, {"type": "Feature", "properties": {"src": "HDY", "dst": "KUL"}, "geometry": {"type": "LineString", "coordinates": [[100.392998, 6.93321], [101.709999, 2.74558]]}}, {"type": "Feature", "properties": {"src": "HKT", "dst": "KUL"}, "geometry": {"type": "LineString", "coordinates": [[98.3174, 8.113257], [101.709999, 2.74558]]}}, {"type": "Feature", "properties": {"src": "JHB", "dst": "KBR"}, "geometry": {"type": "LineString", "coordinates": [[103.669998, 1.64131], [102.29299926757812, 6.1668500900268555]]}}, {"type": "Feature", "properties": {"src": "JHB", "dst": "KUL"}, "geometry": {"type": "LineString", "coordinates": [[103.669998, 1.64131], [101.709999, 2.74558]]}}, {"type": "Feature", "properties": {"src": "JHB", "dst": "PEN"}, "geometry": {"type": "LineString", "coordinates": [[103.669998, 1.64131], [100.276185, 5.296303]]}}, {"type": "Feature", "properties": {"src": "KBR", "dst": "JHB"}, "geometry": {"type": "LineString", "coordinates": [[102.29299926757812, 6.1668500900268555], [103.669998, 1.64131]]}}, {"type": "Feature", "properties": {"src": "KBR", "dst": "KUL"}, "geometry": {"type": "LineString", "coordinates": [[102.29299926757812, 6.1668500900268555], [101.709999, 2.74558]]}}, {"type": "Feature", "properties": {"src": "KBR", "dst": "SIN"}, "geometry": {"type": "LineString", "coordinates": [[102.29299926757812, 6.1668500900268555], [103.994003, 1.35019]]}}, {"type": "Feature", "properties": {"src": "KBV", "dst": "KUL"}, "geometry": {"type": "LineString", "coordinates": [[98.988955, 8.095591], [101.709999, 2.74558]]}}, {"type": "Feature", "properties": {"src": "KUL", "dst": "AOR"}, "geometry": {"type": "LineString", "coordinates": [[101.709999, 2.74558], [100.39800262451172, 6.189670085906982]]}}, {"type": "Feature", "properties": {"src": "KUL", "dst": "BTJ"}, "geometry": {"type": "LineString", "coordinates": [[101.709999, 2.74558], [95.41997, 5.525087]]}}, {"type": "Feature", "properties": {"src": "KUL", "dst": "HDY"}, "geometry": {"type": "LineString", "coordinates": [[101.709999, 2.74558], [100.392998, 6.93321]]}}, {"type": "Feature", "properties": {"src": "KUL", "dst": "HKT"}, "geometry": {"type": "LineString", "coordinates": [[101.709999, 2.74558], [98.3174, 8.113257]]}}, {"type": "Feature", "properties": {"src": "KUL", "dst": "JHB"}, "geometry": {"type": "LineString", "coordinates": [[101.709999, 2.74558], [103.669998, 1.64131]]}}, {"type": "Feature", "properties": {"src": "KUL", "dst": "KBR"}, "geometry": {"type": "LineString", "coordinates": [[101.709999, 2.74558], [102.29299926757812, 6.1668500900268555]]}}, {"type": "Feature", "properties": {"src": "KUL", "dst": "KBV"}, "geometry": {"type": "LineString", "coordinates": [[101.709999, 2.74558], [98.988955, 8.095591]]}}, {"type": "Feature", "properties": {"src": "KUL", "dst": "PDG"}, "geometry": {"type": "LineString", "coordinates": [[101.709999, 2.74558], [100.280384, -0.785964]]}}, {"type": "Feature", "properties": {"src": "KUL", "dst": "PKU"}, "geometry": {"type": "LineString", "coordinates": [[101.709999, 2.74558], [101.444321, 0.458647]]}}, {"type": "Feature", "properties": {"src": "KUL", "dst": "PLM"}, "geometry": {"type": "LineString", "coordinates": [[101.709999, 2.74558], [104.698147, -2.897653]]}}, {"type": "Feature", "properties": {"src": "KUL", "dst": "TGG"}, "geometry": {"type": "LineString", "coordinates": [[101.709999, 2.74558], [103.10299682617188, 5.3826398849487305]]}}, {"type": "Feature", "properties": {"src": "KUL", "dst": "URT"}, "geometry": {"type": "LineString", "coordinates": [[101.709999, 2.74558], [99.135597229, 9.13259983063]]}}, {"type": "Feature", "properties": {"src": "LGK", "dst": "PEN"}, "geometry": {"type": "LineString", "coordinates": [[99.728699, 6.32973], [100.276185, 5.296303]]}}, {"type": "Feature", "properties": {"src": "LGK", "dst": "SIN"}, "geometry": {"type": "LineString", "coordinates": [[99.728699, 6.32973], [103.994003, 1.35019]]}}, {"type": "Feature", "properties": {"src": "PDG", "dst": "KUL"}, "geometry": {"type": "LineString", "coordinates": [[100.280384, -0.785964], [101.709999, 2.74558]]}}, {"type": "Feature", "properties": {"src": "PEN", "dst": "JHB"}, "geometry": {"type": "LineString", "coordinates": [[100.276185, 5.296303], [103.669998, 1.64131]]}}, {"type": "Feature", "properties": {"src": "PEN", "dst": "LGK"}, "geometry": {"type": "LineString", "coordinates": [[100.276185, 5.296303], [99.728699, 6.32973]]}}, {"type": "Feature", "properties": {"src": "PKU", "dst": "KUL"}, "geometry": {"type": "LineString", "coordinates": [[101.444321, 0.458647], [101.709999, 2.74558]]}}, {"type": "Feature", "properties": {"src": "PLM", "dst": "KUL"}, "geometry": {"type": "LineString", "coordinates": [[104.698147, -2.897653], [101.709999, 2.74558]]}}, {"type": "Feature", "properties": {"src": "SIN", "dst": "KBR"}, "geometry": {"type": "LineString", "coordinates": [[103.994003, 1.35019], [102.29299926757812, 6.1668500900268555]]}}, {"type": "Feature", "properties": {"src": "SIN", "dst": "LGK"}, "geometry": {"type": "LineString", "coordinates": [[103.994003, 1.35019], [99.728699, 6.32973]]}}, {"type": "Feature", "properties": {"src": "SIN", "dst": "TGG"}, "geometry": {"type": "LineString", "coordinates": [[103.994003, 1.35019], [103.10299682617188, 5.3826398849487305]]}}, {"type": "Feature", "properties": {"src": "TGG", "dst": "KUL"}, "geometry": {"type": "LineString", "coordinates": [[103.10299682617188, 5.3826398849487305], [101.709999, 2.74558]]}}, {"type": "Feature", "properties": {"src": "TGG", "dst": "SIN"}, "geometry": {"type": "LineString", "coordinates": [[103.10299682617188, 5.3826398849487305], [103.994003, 1.35019]]}}, {"type": "Feature", "properties": {"src": "URT", "dst": "KUL"}, "geometry": {"type": "LineString", "coordinates": [[99.135597229, 9.13259983063], [101.709999, 2.74558]]}}, {"type": "Feature", "properties": {"src": "ADZ", "dst": "BOG"}, "geometry": {"type": "LineString", "coordinates": [[-81.7112, 12.5836], [-74.1469, 4.70159]]}}, {"type": "Feature", "properties": {"src": "AXM", "dst": "BOG"}, "geometry": {"type": "LineString", "coordinates": [[-75.7664, 4.45278], [-74.1469, 4.70159]]}}, {"type": "Feature", "properties": {"src": "BAQ", "dst": "BOG"}, "geometry": {"type": "LineString", "coordinates": [[-74.7808, 10.8896], [-74.1469, 4.70159]]}}, {"type": "Feature", "properties": {"src": "BAQ", "dst": "CLO"}, "geometry": {"type": "LineString", "coordinates": [[-74.7808, 10.8896], [-76.381898, 3.542717]]}}, {"type": "Feature", "properties": {"src": "BAQ", "dst": "MDE"}, "geometry": {"type": "LineString", "coordinates": [[-74.7808, 10.8896], [-75.4231, 6.16454]]}}, {"type": "Feature", "properties": {"src": "BOG", "dst": "ADZ"}, "geometry": {"type": "LineString", "coordinates": [[-74.1469, 4.70159], [-81.7112, 12.5836]]}}, {"type": "Feature", "properties": {"src": "BOG", "dst": "AXM"}, "geometry": {"type": "LineString", "coordinates": [[-74.1469, 4.70159], [-75.7664, 4.45278]]}}, {"type": "Feature", "properties": {"src": "BOG", "dst": "BAQ"}, "geometry": {"type": "LineString", "coordinates": [[-74.1469, 4.70159], [-74.7808, 10.8896]]}}, {"type": "Feature", "properties": {"src": "BOG", "dst": "CLO"}, "geometry": {"type": "LineString", "coordinates": [[-74.1469, 4.70159], [-76.381898, 3.542717]]}}, {"type": "Feature", "properties": {"src": "BOG", "dst": "CTG"}, "geometry": {"type": "LineString", "coordinates": [[-74.1469, 4.70159], [-75.513, 10.4424]]}}, {"type": "Feature", "properties": {"src": "BOG", "dst": "EJA"}, "geometry": {"type": "LineString", "coordinates": [[-74.1469, 4.70159], [-73.8068, 7.02433]]}}, {"type": "Feature", "properties": {"src": "BOG", "dst": "IBE"}, "geometry": {"type": "LineString", "coordinates": [[-74.1469, 4.70159], [-75.1333, 4.42161]]}}, {"type": "Feature", "properties": {"src": "BOG", "dst": "MDE"}, "geometry": {"type": "LineString", "coordinates": [[-74.1469, 4.70159], [-75.4231, 6.16454]]}}, {"type": "Feature", "properties": {"src": "BOG", "dst": "MTR"}, "geometry": {"type": "LineString", "coordinates": [[-74.1469, 4.70159], [-75.8258, 8.82374]]}}, {"type": "Feature", "properties": {"src": "BOG", "dst": "MZL"}, "geometry": {"type": "LineString", "coordinates": [[-74.1469, 4.70159], [-75.4647, 5.0296]]}}, {"type": "Feature", "properties": {"src": "BOG", "dst": "PEI"}, "geometry": {"type": "LineString", "coordinates": [[-74.1469, 4.70159], [-75.7395, 4.81267]]}}, {"type": "Feature", "properties": {"src": "BOG", "dst": "PTY"}, "geometry": {"type": "LineString", "coordinates": [[-74.1469, 4.70159], [-79.383499, 9.07136]]}}, {"type": "Feature", "properties": {"src": "BOG", "dst": "SJO"}, "geometry": {"type": "LineString", "coordinates": [[-74.1469, 4.70159], [-84.208801, 9.99386]]}}, {"type": "Feature", "properties": {"src": "BOG", "dst": "SMR"}, "geometry": {"type": "LineString", "coordinates": [[-74.1469, 4.70159], [-74.2306, 11.1196]]}}, {"type": "Feature", "properties": {"src": "CLO", "dst": "BAQ"}, "geometry": {"type": "LineString", "coordinates": [[-76.381898, 3.542717], [-74.7808, 10.8896]]}}, {"type": "Feature", "properties": {"src": "CLO", "dst": "BOG"}, "geometry": {"type": "LineString", "coordinates": [[-76.381898, 3.542717], [-74.1469, 4.70159]]}}, {"type": "Feature", "properties": {"src": "CLO", "dst": "CTG"}, "geometry": {"type": "LineString", "coordinates": [[-76.381898, 3.542717], [-75.513, 10.4424]]}}, {"type": "Feature", "properties": {"src": "CLO", "dst": "MDE"}, "geometry": {"type": "LineString", "coordinates": [[-76.381898, 3.542717], [-75.4231, 6.16454]]}}, {"type": "Feature", "properties": {"src": "CTG", "dst": "BOG"}, "geometry": {"type": "LineString", "coordinates": [[-75.513, 10.4424], [-74.1469, 4.70159]]}}, {"type": "Feature", "properties": {"src": "CTG", "dst": "CLO"}, "geometry": {"type": "LineString", "coordinates": [[-75.513, 10.4424], [-76.381898, 3.542717]]}}, {"type": "Feature", "properties": {"src": "CTG", "dst": "MDE"}, "geometry": {"type": "LineString", "coordinates": [[-75.513, 10.4424], [-75.4231, 6.16454]]}}, {"type": "Feature", "properties": {"src": "EJA", "dst": "BOG"}, "geometry": {"type": "LineString", "coordinates": [[-73.8068, 7.02433], [-74.1469, 4.70159]]}}, {"type": "Feature", "properties": {"src": "IBE", "dst": "BOG"}, "geometry": {"type": "LineString", "coordinates": [[-75.1333, 4.42161], [-74.1469, 4.70159]]}}, {"type": "Feature", "properties": {"src": "MDE", "dst": "BAQ"}, "geometry": {"type": "LineString", "coordinates": [[-75.4231, 6.16454], [-74.7808, 10.8896]]}}, {"type": "Feature", "properties": {"src": "MDE", "dst": "BOG"}, "geometry": {"type": "LineString", "coordinates": [[-75.4231, 6.16454], [-74.1469, 4.70159]]}}, {"type": "Feature", "properties": {"src": "MDE", "dst": "CLO"}, "geometry": {"type": "LineString", "coordinates": [[-75.4231, 6.16454], [-76.381898, 3.542717]]}}, {"type": "Feature", "properties": {"src": "MDE", "dst": "CTG"}, "geometry": {"type": "LineString", "coordinates": [[-75.4231, 6.16454], [-75.513, 10.4424]]}}, {"type": "Feature", "properties": {"src": "MDE", "dst": "SMR"}, "geometry": {"type": "LineString", "coordinates": [[-75.4231, 6.16454], [-74.2306, 11.1196]]}}, {"type": "Feature", "properties": {"src": "MTR", "dst": "BOG"}, "geometry": {"type": "LineString", "coordinates": [[-75.8258, 8.82374], [-74.1469, 4.70159]]}}, {"type": "Feature", "properties": {"src": "MZL", "dst": "BOG"}, "geometry": {"type": "LineString", "coordinates": [[-75.4647, 5.0296], [-74.1469, 4.70159]]}}, {"type": "Feature", "properties": {"src": "PEI", "dst": "BOG"}, "geometry": {"type": "LineString", "coordinates": [[-75.7395, 4.81267], [-74.1469, 4.70159]]}}, {"type": "Feature", "properties": {"src": "PTY", "dst": "BOG"}, "geometry": {"type": "LineString", "coordinates": [[-79.383499, 9.07136], [-74.1469, 4.70159]]}}, {"type": "Feature", "properties": {"src": "PTY", "dst": "SJO"}, "geometry": {"type": "LineString", "coordinates": [[-79.383499, 9.07136], [-84.208801, 9.99386]]}}, {"type": "Feature", "properties": {"src": "SJO", "dst": "BOG"}, "geometry": {"type": "LineString", "coordinates": [[-84.208801, 9.99386], [-74.1469, 4.70159]]}}, {"type": "Feature", "properties": {"src": "SJO", "dst": "PTY"}, "geometry": {"type": "LineString", "coordinates": [[-84.208801, 9.99386], [-79.383499, 9.07136]]}}, {"type": "Feature", "properties": {"src": "SMR", "dst": "BOG"}, "geometry": {"type": "LineString", "coordinates": [[-74.2306, 11.1196], [-74.1469, 4.70159]]}}, {"type": "Feature", "properties": {"src": "SMR", "dst": "MDE"}, "geometry": {"type": "LineString", "coordinates": [[-74.2306, 11.1196], [-75.4231, 6.16454]]}}, {"type": "Feature", "properties": {"src": "AUH", "dst": "KUL"}, "geometry": {"type": "LineString", "coordinates": [[54.649237, 24.440966], [101.709999, 2.74558]]}}, {"type": "Feature", "properties": {"src": "KUL", "dst": "AUH"}, "geometry": {"type": "LineString", "coordinates": [[101.709999, 2.74558], [54.649237, 24.440966]]}}, {"type": "Feature", "properties": {"src": "KIH", "dst": "SYZ"}, "geometry": {"type": "LineString", "coordinates": [[53.980462, 26.525427], [52.589802, 29.5392]]}}, {"type": "Feature", "properties": {"src": "SYZ", "dst": "KIH"}, "geometry": {"type": "LineString", "coordinates": [[52.589802, 29.5392], [53.980462, 26.525427]]}}, {"type": "Feature", "properties": {"src": "DOH", "dst": "DXB"}, "geometry": {"type": "LineString", "coordinates": [[51.608056, 25.273056], [55.370992, 25.24979]]}}, {"type": "Feature", "properties": {"src": "ADZ", "dst": "BAQ"}, "geometry": {"type": "LineString", "coordinates": [[-81.7112, 12.5836], [-74.7808, 10.8896]]}}, {"type": "Feature", "properties": {"src": "ADZ", "dst": "CLO"}, "geometry": {"type": "LineString", "coordinates": [[-81.7112, 12.5836], [-76.381898, 3.542717]]}}, {"type": "Feature", "properties": {"src": "ADZ", "dst": "CTG"}, "geometry": {"type": "LineString", "coordinates": [[-81.7112, 12.5836], [-75.513, 10.4424]]}}, {"type": "Feature", "properties": {"src": "ADZ", "dst": "MDE"}, "geometry": {"type": "LineString", "coordinates": [[-81.7112, 12.5836], [-75.4231, 6.16454]]}}, {"type": "Feature", "properties": {"src": "ADZ", "dst": "PEI"}, "geometry": {"type": "LineString", "coordinates": [[-81.7112, 12.5836], [-75.7395, 4.81267]]}}, {"type": "Feature", "properties": {"src": "ADZ", "dst": "PTY"}, "geometry": {"type": "LineString", "coordinates": [[-81.7112, 12.5836], [-79.383499, 9.07136]]}}, {"type": "Feature", "properties": {"src": "BAQ", "dst": "ADZ"}, "geometry": {"type": "LineString", "coordinates": [[-74.7808, 10.8896], [-81.7112, 12.5836]]}}, {"type": "Feature", "properties": {"src": "BAQ", "dst": "PTY"}, "geometry": {"type": "LineString", "coordinates": [[-74.7808, 10.8896], [-79.383499, 9.07136]]}}, {"type": "Feature", "properties": {"src": "CLO", "dst": "ADZ"}, "geometry": {"type": "LineString", "coordinates": [[-76.381898, 3.542717], [-81.7112, 12.5836]]}}, {"type": "Feature", "properties": {"src": "CLO", "dst": "PTY"}, "geometry": {"type": "LineString", "coordinates": [[-76.381898, 3.542717], [-79.383499, 9.07136]]}}, {"type": "Feature", "properties": {"src": "CTG", "dst": "ADZ"}, "geometry": {"type": "LineString", "coordinates": [[-75.513, 10.4424], [-81.7112, 12.5836]]}}, {"type": "Feature", "properties": {"src": "CTG", "dst": "PTY"}, "geometry": {"type": "LineString", "coordinates": [[-75.513, 10.4424], [-79.383499, 9.07136]]}}, {"type": "Feature", "properties": {"src": "MDE", "dst": "ADZ"}, "geometry": {"type": "LineString", "coordinates": [[-75.4231, 6.16454], [-81.7112, 12.5836]]}}, {"type": "Feature", "properties": {"src": "MDE", "dst": "PTY"}, "geometry": {"type": "LineString", "coordinates": [[-75.4231, 6.16454], [-79.383499, 9.07136]]}}, {"type": "Feature", "properties": {"src": "PEI", "dst": "ADZ"}, "geometry": {"type": "LineString", "coordinates": [[-75.7395, 4.81267], [-81.7112, 12.5836]]}}, {"type": "Feature", "properties": {"src": "PEI", "dst": "PTY"}, "geometry": {"type": "LineString", "coordinates": [[-75.7395, 4.81267], [-79.383499, 9.07136]]}}, {"type": "Feature", "properties": {"src": "PTY", "dst": "ADZ"}, "geometry": {"type": "LineString", "coordinates": [[-79.383499, 9.07136], [-81.7112, 12.5836]]}}, {"type": "Feature", "properties": {"src": "PTY", "dst": "BAQ"}, "geometry": {"type": "LineString", "coordinates": [[-79.383499, 9.07136], [-74.7808, 10.8896]]}}, {"type": "Feature", "properties": {"src": "PTY", "dst": "CLO"}, "geometry": {"type": "LineString", "coordinates": [[-79.383499, 9.07136], [-76.381898, 3.542717]]}}, {"type": "Feature", "properties": {"src": "PTY", "dst": "CTG"}, "geometry": {"type": "LineString", "coordinates": [[-79.383499, 9.07136], [-75.513, 10.4424]]}}, {"type": "Feature", "properties": {"src": "PTY", "dst": "MDE"}, "geometry": {"type": "LineString", "coordinates": [[-79.383499, 9.07136], [-75.4231, 6.16454]]}}, {"type": "Feature", "properties": {"src": "PTY", "dst": "PEI"}, "geometry": {"type": "LineString", "coordinates": [[-79.383499, 9.07136], [-75.7395, 4.81267]]}}, {"type": "Feature", "properties": {"src": "AUH", "dst": "LCA"}, "geometry": {"type": "LineString", "coordinates": [[54.649237, 24.440966], [33.624901, 34.875099]]}}, {"type": "Feature", "properties": {"src": "BEY", "dst": "LCA"}, "geometry": {"type": "LineString", "coordinates": [[35.487443, 33.819833], [33.624901, 34.875099]]}}, {"type": "Feature", "properties": {"src": "LCA", "dst": "AUH"}, "geometry": {"type": "LineString", "coordinates": [[33.624901, 34.875099], [54.649237, 24.440966]]}}, {"type": "Feature", "properties": {"src": "LCA", "dst": "BEY"}, "geometry": {"type": "LineString", "coordinates": [[33.624901, 34.875099], [35.487443, 33.819833]]}}, {"type": "Feature", "properties": {"src": "LCA", "dst": "TLV"}, "geometry": {"type": "LineString", "coordinates": [[33.624901, 34.875099], [34.8867, 32.011398]]}}, {"type": "Feature", "properties": {"src": "TLV", "dst": "LCA"}, "geometry": {"type": "LineString", "coordinates": [[34.8867, 32.011398], [33.624901, 34.875099]]}}, {"type": "Feature", "properties": {"src": "DXB", "dst": "HGA"}, "geometry": {"type": "LineString", "coordinates": [[55.370992, 25.24979], [44.083469, 9.514082]]}}, {"type": "Feature", "properties": {"src": "HGA", "dst": "JIB"}, "geometry": {"type": "LineString", "coordinates": [[44.083469, 9.514082], [43.1595, 11.5473]]}}, {"type": "Feature", "properties": {"src": "AMM", "dst": "HBE"}, "geometry": {"type": "LineString", "coordinates": [[35.9931983948, 31.7226009369], [29.696437, 30.93249]]}}, {"type": "Feature", "properties": {"src": "HBE", "dst": "AMM"}, "geometry": {"type": "LineString", "coordinates": [[29.696437, 30.93249], [35.9931983948, 31.7226009369]]}}, {"type": "Feature", "properties": {"src": "ADD", "dst": "DXB"}, "geometry": {"type": "LineString", "coordinates": [[38.799301, 8.97789], [55.370992, 25.24979]]}}, {"type": "Feature", "properties": {"src": "AMM", "dst": "DXB"}, "geometry": {"type": "LineString", "coordinates": [[35.9931983948, 31.7226009369], [55.370992, 25.24979]]}}, {"type": "Feature", "properties": {"src": "BEY", "dst": "DXB"}, "geometry": {"type": "LineString", "coordinates": [[35.487443, 33.819833], [55.370992, 25.24979]]}}, {"type": "Feature", "properties": {"src": "CAI", "dst": "DXB"}, "geometry": {"type": "LineString", "coordinates": [[31.396694, 30.111534], [55.370992, 25.24979]]}}, {"type": "Feature", "properties": {"src": "DXB", "dst": "ADD"}, "geometry": {"type": "LineString", "coordinates": [[55.370992, 25.24979], [38.799301, 8.97789]]}}, {"type": "Feature", "properties": {"src": "DXB", "dst": "AMM"}, "geometry": {"type": "LineString", "coordinates": [[55.370992, 25.24979], [35.9931983948, 31.7226009369]]}}, {"type": "Feature", "properties": {"src": "DXB", "dst": "BEY"}, "geometry": {"type": "LineString", "coordinates": [[55.370992, 25.24979], [35.487443, 33.819833]]}}, {"type": "Feature", "properties": {"src": "DXB", "dst": "CAI"}, "geometry": {"type": "LineString", "coordinates": [[55.370992, 25.24979], [31.396694, 30.111534]]}}, {"type": "Feature", "properties": {"src": "DXB", "dst": "DOH"}, "geometry": {"type": "LineString", "coordinates": [[55.370992, 25.24979], [51.608056, 25.273056]]}}, {"type": "Feature", "properties": {"src": "DXB", "dst": "HKT"}, "geometry": {"type": "LineString", "coordinates": [[55.370992, 25.24979], [98.3174, 8.113257]]}}, {"type": "Feature", "properties": {"src": "DXB", "dst": "KUL"}, "geometry": {"type": "LineString", "coordinates": [[55.370992, 25.24979], [101.709999, 2.74558]]}}, {"type": "Feature", "properties": {"src": "DXB", "dst": "LCA"}, "geometry": {"type": "LineString", "coordinates": [[55.370992, 25.24979], [33.624901, 34.875099]]}}, {"type": "Feature", "properties": {"src": "DXB", "dst": "MCT"}, "geometry": {"type": "LineString", "coordinates": [[55.370992, 25.24979], [58.285268, 23.600218]]}}, {"type": "Feature", "properties": {"src": "DXB", "dst": "SAH"}, "geometry": {"type": "LineString", "coordinates": [[55.370992, 25.24979], [44.2197, 15.4763]]}}, {"type": "Feature", "properties": {"src": "DXB", "dst": "SIN"}, "geometry": {"type": "LineString", "coordinates": [[55.370992, 25.24979], [103.994003, 1.35019]]}}, {"type": "Feature", "properties": {"src": "HKT", "dst": "DXB"}, "geometry": {"type": "LineString", "coordinates": [[98.3174, 8.113257], [55.370992, 25.24979]]}}, {"type": "Feature", "properties": {"src": "KUL", "dst": "DXB"}, "geometry": {"type": "LineString", "coordinates": [[101.709999, 2.74558], [55.370992, 25.24979]]}}, {"type": "Feature", "properties": {"src": "LCA", "dst": "DXB"}, "geometry": {"type": "LineString", "coordinates": [[33.624901, 34.875099], [55.370992, 25.24979]]}}, {"type": "Feature", "properties": {"src": "MCT", "dst": "DXB"}, "geometry": {"type": "LineString", "coordinates": [[58.285268, 23.600218], [55.370992, 25.24979]]}}, {"type": "Feature", "properties": {"src": "SAH", "dst": "DXB"}, "geometry": {"type": "LineString", "coordinates": [[44.2197, 15.4763], [55.370992, 25.24979]]}}, {"type": "Feature", "properties": {"src": "SIN", "dst": "DXB"}, "geometry": {"type": "LineString", "coordinates": [[103.994003, 1.35019], [55.370992, 25.24979]]}}, {"type": "Feature", "properties": {"src": "CAI", "dst": "TUU"}, "geometry": {"type": "LineString", "coordinates": [[31.396694, 30.111534], [36.624865, 28.3711]]}}, {"type": "Feature", "properties": {"src": "TUU", "dst": "CAI"}, "geometry": {"type": "LineString", "coordinates": [[36.624865, 28.3711], [31.396694, 30.111534]]}}, {"type": "Feature", "properties": {"src": "BDH", "dst": "DXB"}, "geometry": {"type": "LineString", "coordinates": [[54.82484, 26.532283], [55.370992, 25.24979]]}}, {"type": "Feature", "properties": {"src": "BND", "dst": "DXB"}, "geometry": {"type": "LineString", "coordinates": [[56.3778, 27.2183], [55.370992, 25.24979]]}}, {"type": "Feature", "properties": {"src": "BND", "dst": "KIH"}, "geometry": {"type": "LineString", "coordinates": [[56.3778, 27.2183], [53.980462, 26.525427]]}}, {"type": "Feature", "properties": {"src": "BND", "dst": "SYZ"}, "geometry": {"type": "LineString", "coordinates": [[56.3778, 27.2183], [52.589802, 29.5392]]}}, {"type": "Feature", "properties": {"src": "DXB", "dst": "BDH"}, "geometry": {"type": "LineString", "coordinates": [[55.370992, 25.24979], [54.82484, 26.532283]]}}, {"type": "Feature", "properties": {"src": "DXB", "dst": "BND"}, "geometry": {"type": "LineString", "coordinates": [[55.370992, 25.24979], [56.3778, 27.2183]]}}, {"type": "Feature", "properties": {"src": "DXB", "dst": "LFM"}, "geometry": {"type": "LineString", "coordinates": [[55.370992, 25.24979], [53.188801, 27.3727]]}}, {"type": "Feature", "properties": {"src": "DXB", "dst": "LRR"}, "geometry": {"type": "LineString", "coordinates": [[55.370992, 25.24979], [54.383301, 27.6747]]}}, {"type": "Feature", "properties": {"src": "DXB", "dst": "SYZ"}, "geometry": {"type": "LineString", "coordinates": [[55.370992, 25.24979], [52.589802, 29.5392]]}}, {"type": "Feature", "properties": {"src": "DXB", "dst": "ZAH"}, "geometry": {"type": "LineString", "coordinates": [[55.370992, 25.24979], [60.9062, 29.4757]]}}, {"type": "Feature", "properties": {"src": "DXB", "dst": "ZBR"}, "geometry": {"type": "LineString", "coordinates": [[55.370992, 25.24979], [60.382167, 25.44319]]}}, {"type": "Feature", "properties": {"src": "GSM", "dst": "SYZ"}, "geometry": {"type": "LineString", "coordinates": [[55.902353, 26.754639], [52.589802, 29.5392]]}}, {"type": "Feature", "properties": {"src": "KER", "dst": "SYZ"}, "geometry": {"type": "LineString", "coordinates": [[56.949692, 30.271276], [52.589802, 29.5392]]}}, {"type": "Feature", "properties": {"src": "KIH", "dst": "BND"}, "geometry": {"type": "LineString", "coordinates": [[53.980462, 26.525427], [56.3778, 27.2183]]}}, {"type": "Feature", "properties": {"src": "LFM", "dst": "DXB"}, "geometry": {"type": "LineString", "coordinates": [[53.188801, 27.3727], [55.370992, 25.24979]]}}, {"type": "Feature", "properties": {"src": "LFM", "dst": "SYZ"}, "geometry": {"type": "LineString", "coordinates": [[53.188801, 27.3727], [52.589802, 29.5392]]}}, {"type": "Feature", "properties": {"src": "LRR", "dst": "DXB"}, "geometry": {"type": "LineString", "coordinates": [[54.383301, 27.6747], [55.370992, 25.24979]]}}, {"type": "Feature", "properties": {"src": "LRR", "dst": "SYZ"}, "geometry": {"type": "LineString", "coordinates": [[54.383301, 27.6747], [52.589802, 29.5392]]}}, {"type": "Feature", "properties": {"src": "MCT", "dst": "SYZ"}, "geometry": {"type": "LineString", "coordinates": [[58.285268, 23.600218], [52.589802, 29.5392]]}}, {"type": "Feature", "properties": {"src": "MCT", "dst": "ZBR"}, "geometry": {"type": "LineString", "coordinates": [[58.285268, 23.600218], [60.382167, 25.44319]]}}, {"type": "Feature", "properties": {"src": "PGU", "dst": "SYZ"}, "geometry": {"type": "LineString", "coordinates": [[52.737701, 27.379601], [52.589802, 29.5392]]}}, {"type": "Feature", "properties": {"src": "SYZ", "dst": "BND"}, "geometry": {"type": "LineString", "coordinates": [[52.589802, 29.5392], [56.3778, 27.2183]]}}, {"type": "Feature", "properties": {"src": "SYZ", "dst": "DXB"}, "geometry": {"type": "LineString", "coordinates": [[52.589802, 29.5392], [55.370992, 25.24979]]}}, {"type": "Feature", "properties": {"src": "SYZ", "dst": "GSM"}, "geometry": {"type": "LineString", "coordinates": [[52.589802, 29.5392], [55.902353, 26.754639]]}}, {"type": "Feature", "properties": {"src": "SYZ", "dst": "KER"}, "geometry": {"type": "LineString", "coordinates": [[52.589802, 29.5392], [56.949692, 30.271276]]}}, {"type": "Feature", "properties": {"src": "SYZ", "dst": "LFM"}, "geometry": {"type": "LineString", "coordinates": [[52.589802, 29.5392], [53.188801, 27.3727]]}}, {"type": "Feature", "properties": {"src": "SYZ", "dst": "LRR"}, "geometry": {"type": "LineString", "coordinates": [[52.589802, 29.5392], [54.383301, 27.6747]]}}, {"type": "Feature", "properties": {"src": "SYZ", "dst": "MCT"}, "geometry": {"type": "LineString", "coordinates": [[52.589802, 29.5392], [58.285268, 23.600218]]}}, {"type": "Feature", "properties": {"src": "SYZ", "dst": "PGU"}, "geometry": {"type": "LineString", "coordinates": [[52.589802, 29.5392], [52.737701, 27.379601]]}}, {"type": "Feature", "properties": {"src": "SYZ", "dst": "ZAH"}, "geometry": {"type": "LineString", "coordinates": [[52.589802, 29.5392], [60.9062, 29.4757]]}}, {"type": "Feature", "properties": {"src": "ZAH", "dst": "DXB"}, "geometry": {"type": "LineString", "coordinates": [[60.9062, 29.4757], [55.370992, 25.24979]]}}, {"type": "Feature", "properties": {"src": "ZAH", "dst": "SYZ"}, "geometry": {"type": "LineString", "coordinates": [[60.9062, 29.4757], [52.589802, 29.5392]]}}, {"type": "Feature", "properties": {"src": "ZBR", "dst": "MCT"}, "geometry": {"type": "LineString", "coordinates": [[60.382167, 25.44319], [58.285268, 23.600218]]}}, {"type": "Feature", "properties": {"src": "ADD", "dst": "AXU"}, "geometry": {"type": "LineString", "coordinates": [[38.799301, 8.97789], [38.7728, 14.1468]]}}, {"type": "Feature", "properties": {"src": "ADD", "dst": "BEY"}, "geometry": {"type": "LineString", "coordinates": [[38.799301, 8.97789], [35.487443, 33.819833]]}}, {"type": "Feature", "properties": {"src": "ADD", "dst": "CAI"}, "geometry": {"type": "LineString", "coordinates": [[38.799301, 8.97789], [31.396694, 30.111534]]}}, {"type": "Feature", "properties": {"src": "ADD", "dst": "DIR"}, "geometry": {"type": "LineString", "coordinates": [[38.799301, 8.97789], [41.855027, 9.623549]]}}, {"type": "Feature", "properties": {"src": "ADD", "dst": "HGA"}, "geometry": {"type": "LineString", "coordinates": [[38.799301, 8.97789], [44.083469, 9.514082]]}}, {"type": "Feature", "properties": {"src": "ADD", "dst": "JIB"}, "geometry": {"type": "LineString", "coordinates": [[38.799301, 8.97789], [43.1595, 11.5473]]}}, {"type": "Feature", "properties": {"src": "ADD", "dst": "JIJ"}, "geometry": {"type": "LineString", "coordinates": [[38.799301, 8.97789], [42.911811, 9.331907]]}}, {"type": "Feature", "properties": {"src": "ADD", "dst": "MCT"}, "geometry": {"type": "LineString", "coordinates": [[38.799301, 8.97789], [58.285268, 23.600218]]}}, {"type": "Feature", "properties": {"src": "ADD", "dst": "MQX"}, "geometry": {"type": "LineString", "coordinates": [[38.799301, 8.97789], [39.533501, 13.4674]]}}, {"type": "Feature", "properties": {"src": "ADD", "dst": "TLV"}, "geometry": {"type": "LineString", "coordinates": [[38.799301, 8.97789], [34.8867, 32.011398]]}}, {"type": "Feature", "properties": {"src": "AXU", "dst": "ADD"}, "geometry": {"type": "LineString", "coordinates": [[38.7728, 14.1468], [38.799301, 8.97789]]}}, {"type": "Feature", "properties": {"src": "BEY", "dst": "ADD"}, "geometry": {"type": "LineString", "coordinates": [[35.487443, 33.819833], [38.799301, 8.97789]]}}, {"type": "Feature", "properties": {"src": "CAI", "dst": "ADD"}, "geometry": {"type": "LineString", "coordinates": [[31.396694, 30.111534], [38.799301, 8.97789]]}}, {"type": "Feature", "properties": {"src": "CAI", "dst": "LCA"}, "geometry": {"type": "LineString", "coordinates": [[31.396694, 30.111534], [33.624901, 34.875099]]}}, {"type": "Feature", "properties": {"src": "DIR", "dst": "ADD"}, "geometry": {"type": "LineString", "coordinates": [[41.855027, 9.623549], [38.799301, 8.97789]]}}, {"type": "Feature", "properties": {"src": "DIR", "dst": "JIB"}, "geometry": {"type": "LineString", "coordinates": [[41.855027, 9.623549], [43.1595, 11.5473]]}}, {"type": "Feature", "properties": {"src": "DIR", "dst": "JIJ"}, "geometry": {"type": "LineString", "coordinates": [[41.855027, 9.623549], [42.911811, 9.331907]]}}, {"type": "Feature", "properties": {"src": "HGA", "dst": "ADD"}, "geometry": {"type": "LineString", "coordinates": [[44.083469, 9.514082], [38.799301, 8.97789]]}}, {"type": "Feature", "properties": {"src": "JIB", "dst": "ADD"}, "geometry": {"type": "LineString", "coordinates": [[43.1595, 11.5473], [38.799301, 8.97789]]}}, {"type": "Feature", "properties": {"src": "JIB", "dst": "DIR"}, "geometry": {"type": "LineString", "coordinates": [[43.1595, 11.5473], [41.855027, 9.623549]]}}, {"type": "Feature", "properties": {"src": "JIJ", "dst": "ADD"}, "geometry": {"type": "LineString", "coordinates": [[42.911811, 9.331907], [38.799301, 8.97789]]}}, {"type": "Feature", "properties": {"src": "JIJ", "dst": "DIR"}, "geometry": {"type": "LineString", "coordinates": [[42.911811, 9.331907], [41.855027, 9.623549]]}}, {"type": "Feature", "properties": {"src": "LCA", "dst": "CAI"}, "geometry": {"type": "LineString", "coordinates": [[33.624901, 34.875099], [31.396694, 30.111534]]}}, {"type": "Feature", "properties": {"src": "MCT", "dst": "ADD"}, "geometry": {"type": "LineString", "coordinates": [[58.285268, 23.600218], [38.799301, 8.97789]]}}, {"type": "Feature", "properties": {"src": "MQX", "dst": "ADD"}, "geometry": {"type": "LineString", "coordinates": [[39.533501, 13.4674], [38.799301, 8.97789]]}}, {"type": "Feature", "properties": {"src": "TLV", "dst": "ADD"}, "geometry": {"type": "LineString", "coordinates": [[34.8867, 32.011398], [38.799301, 8.97789]]}}, {"type": "Feature", "properties": {"src": "AMM", "dst": "AUH"}, "geometry": {"type": "LineString", "coordinates": [[35.9931983948, 31.7226009369], [54.649237, 24.440966]]}}, {"type": "Feature", "properties": {"src": "AUH", "dst": "AMM"}, "geometry": {"type": "LineString", "coordinates": [[54.649237, 24.440966], [35.9931983948, 31.7226009369]]}}, {"type": "Feature", "properties": {"src": "AUH", "dst": "BEY"}, "geometry": {"type": "LineString", "coordinates": [[54.649237, 24.440966], [35.487443, 33.819833]]}}, {"type": "Feature", "properties": {"src": "AUH", "dst": "CAI"}, "geometry": {"type": "LineString", "coordinates": [[54.649237, 24.440966], [31.396694, 30.111534]]}}, {"type": "Feature", "properties": {"src": "AUH", "dst": "DOH"}, "geometry": {"type": "LineString", "coordinates": [[54.649237, 24.440966], [51.608056, 25.273056]]}}, {"type": "Feature", "properties": {"src": "AUH", "dst": "SAH"}, "geometry": {"type": "LineString", "coordinates": [[54.649237, 24.440966], [44.2197, 15.4763]]}}, {"type": "Feature", "properties": {"src": "BEY", "dst": "AUH"}, "geometry": {"type": "LineString", "coordinates": [[35.487443, 33.819833], [54.649237, 24.440966]]}}, {"type": "Feature", "properties": {"src": "CAI", "dst": "AUH"}, "geometry": {"type": "LineString", "coordinates": [[31.396694, 30.111534], [54.649237, 24.440966]]}}, {"type": "Feature", "properties": {"src": "DOH", "dst": "AUH"}, "geometry": {"type": "LineString", "coordinates": [[51.608056, 25.273056], [54.649237, 24.440966]]}}, {"type": "Feature", "properties": {"src": "SAH", "dst": "AUH"}, "geometry": {"type": "LineString", "coordinates": [[44.2197, 15.4763], [54.649237, 24.440966]]}}, {"type": "Feature", "properties": {"src": "KBV", "dst": "SIN"}, "geometry": {"type": "LineString", "coordinates": [[98.988955, 8.095591], [103.994003, 1.35019]]}}, {"type": "Feature", "properties": {"src": "SIN", "dst": "KBV"}, "geometry": {"type": "LineString", "coordinates": [[103.994003, 1.35019], [98.988955, 8.095591]]}}, {"type": "Feature", "properties": {"src": "ADE", "dst": "SAH"}, "geometry": {"type": "LineString", "coordinates": [[45.029976, 12.829564], [44.2197, 15.4763]]}}, {"type": "Feature", "properties": {"src": "ADE", "dst": "SHJ"}, "geometry": {"type": "LineString", "coordinates": [[45.029976, 12.829564], [55.5172, 25.3286]]}}, {"type": "Feature", "properties": {"src": "AXK", "dst": "SAH"}, "geometry": {"type": "LineString", "coordinates": [[46.826199, 14.5513], [44.2197, 15.4763]]}}, {"type": "Feature", "properties": {"src": "JIB", "dst": "SAH"}, "geometry": {"type": "LineString", "coordinates": [[43.1595, 11.5473], [44.2197, 15.4763]]}}, {"type": "Feature", "properties": {"src": "JIB", "dst": "TAI"}, "geometry": {"type": "LineString", "coordinates": [[43.1595, 11.5473], [44.139099, 13.686]]}}, {"type": "Feature", "properties": {"src": "SAH", "dst": "ADE"}, "geometry": {"type": "LineString", "coordinates": [[44.2197, 15.4763], [45.029976, 12.829564]]}}, {"type": "Feature", "properties": {"src": "SAH", "dst": "AXK"}, "geometry": {"type": "LineString", "coordinates": [[44.2197, 15.4763], [46.826199, 14.5513]]}}, {"type": "Feature", "properties": {"src": "SAH", "dst": "TAI"}, "geometry": {"type": "LineString", "coordinates": [[44.2197, 15.4763], [44.139099, 13.686]]}}, {"type": "Feature", "properties": {"src": "SHJ", "dst": "ADE"}, "geometry": {"type": "LineString", "coordinates": [[55.5172, 25.3286], [45.029976, 12.829564]]}}, {"type": "Feature", "properties": {"src": "TAI", "dst": "JIB"}, "geometry": {"type": "LineString", "coordinates": [[44.139099, 13.686], [43.1595, 11.5473]]}}, {"type": "Feature", "properties": {"src": "TAI", "dst": "SAH"}, "geometry": {"type": "LineString", "coordinates": [[44.139099, 13.686], [44.2197, 15.4763]]}}, {"type": "Feature", "properties": {"src": "AOR", "dst": "SZB"}, "geometry": {"type": "LineString", "coordinates": [[100.39800262451172, 6.189670085906982], [101.549004, 3.13058]]}}, {"type": "Feature", "properties": {"src": "BTH", "dst": "SZB"}, "geometry": {"type": "LineString", "coordinates": [[104.119003, 1.12103], [101.549004, 3.13058]]}}, {"type": "Feature", "properties": {"src": "BTJ", "dst": "PEN"}, "geometry": {"type": "LineString", "coordinates": [[95.41997, 5.525087], [100.276185, 5.296303]]}}, {"type": "Feature", "properties": {"src": "HKT", "dst": "PEN"}, "geometry": {"type": "LineString", "coordinates": [[98.3174, 8.113257], [100.276185, 5.296303]]}}, {"type": "Feature", "properties": {"src": "IPH", "dst": "SIN"}, "geometry": {"type": "LineString", "coordinates": [[101.091643, 4.56733], [103.994003, 1.35019]]}}, {"type": "Feature", "properties": {"src": "JHB", "dst": "SZB"}, "geometry": {"type": "LineString", "coordinates": [[103.669998, 1.64131], [101.549004, 3.13058]]}}, {"type": "Feature", "properties": {"src": "KBR", "dst": "PEN"}, "geometry": {"type": "LineString", "coordinates": [[102.29299926757812, 6.1668500900268555], [100.276185, 5.296303]]}}, {"type": "Feature", "properties": {"src": "KBR", "dst": "SZB"}, "geometry": {"type": "LineString", "coordinates": [[102.29299926757812, 6.1668500900268555], [101.549004, 3.13058]]}}, {"type": "Feature", "properties": {"src": "KTE", "dst": "SZB"}, "geometry": {"type": "LineString", "coordinates": [[103.427002, 4.53722], [101.549004, 3.13058]]}}, {"type": "Feature", "properties": {"src": "KUA", "dst": "PEN"}, "geometry": {"type": "LineString", "coordinates": [[103.20899963378906, 3.7753899097442627], [100.276185, 5.296303]]}}, {"type": "Feature", "properties": {"src": "KUA", "dst": "SIN"}, "geometry": {"type": "LineString", "coordinates": [[103.20899963378906, 3.7753899097442627], [103.994003, 1.35019]]}}, {"type": "Feature", "properties": {"src": "LGK", "dst": "SZB"}, "geometry": {"type": "LineString", "coordinates": [[99.728699, 6.32973], [101.549004, 3.13058]]}}, {"type": "Feature", "properties": {"src": "PEN", "dst": "BTJ"}, "geometry": {"type": "LineString", "coordinates": [[100.276185, 5.296303], [95.41997, 5.525087]]}}, {"type": "Feature", "properties": {"src": "PEN", "dst": "HKT"}, "geometry": {"type": "LineString", "coordinates": [[100.276185, 5.296303], [98.3174, 8.113257]]}}, {"type": "Feature", "properties": {"src": "PEN", "dst": "KBR"}, "geometry": {"type": "LineString", "coordinates": [[100.276185, 5.296303], [102.29299926757812, 6.1668500900268555]]}}, {"type": "Feature", "properties": {"src": "PEN", "dst": "KUA"}, "geometry": {"type": "LineString", "coordinates": [[100.276185, 5.296303], [103.20899963378906, 3.7753899097442627]]}}, {"type": "Feature", "properties": {"src": "PEN", "dst": "SZB"}, "geometry": {"type": "LineString", "coordinates": [[100.276185, 5.296303], [101.549004, 3.13058]]}}, {"type": "Feature", "properties": {"src": "PEN", "dst": "USM"}, "geometry": {"type": "LineString", "coordinates": [[100.276185, 5.296303], [100.061996, 9.54779]]}}, {"type": "Feature", "properties": {"src": "PKU", "dst": "SZB"}, "geometry": {"type": "LineString", "coordinates": [[101.444321, 0.458647], [101.549004, 3.13058]]}}, {"type": "Feature", "properties": {"src": "SIN", "dst": "IPH"}, "geometry": {"type": "LineString", "coordinates": [[103.994003, 1.35019], [101.091643, 4.56733]]}}, {"type": "Feature", "properties": {"src": "SIN", "dst": "KUA"}, "geometry": {"type": "LineString", "coordinates": [[103.994003, 1.35019], [103.20899963378906, 3.7753899097442627]]}}, {"type": "Feature", "properties": {"src": "SIN", "dst": "SZB"}, "geometry": {"type": "LineString", "coordinates": [[103.994003, 1.35019], [101.549004, 3.13058]]}}, {"type": "Feature", "properties": {"src": "SZB", "dst": "AOR"}, "geometry": {"type": "LineString", "coordinates": [[101.549004, 3.13058], [100.39800262451172, 6.189670085906982]]}}, {"type": "Feature", "properties": {"src": "SZB", "dst": "BTH"}, "geometry": {"type": "LineString", "coordinates": [[101.549004, 3.13058], [104.119003, 1.12103]]}}, {"type": "Feature", "properties": {"src": "SZB", "dst": "JHB"}, "geometry": {"type": "LineString", "coordinates": [[101.549004, 3.13058], [103.669998, 1.64131]]}}, {"type": "Feature", "properties": {"src": "SZB", "dst": "KBR"}, "geometry": {"type": "LineString", "coordinates": [[101.549004, 3.13058], [102.29299926757812, 6.1668500900268555]]}}, {"type": "Feature", "properties": {"src": "SZB", "dst": "KTE"}, "geometry": {"type": "LineString", "coordinates": [[101.549004, 3.13058], [103.427002, 4.53722]]}}, {"type": "Feature", "properties": {"src": "SZB", "dst": "LGK"}, "geometry": {"type": "LineString", "coordinates": [[101.549004, 3.13058], [99.728699, 6.32973]]}}, {"type": "Feature", "properties": {"src": "SZB", "dst": "PEN"}, "geometry": {"type": "LineString", "coordinates": [[101.549004, 3.13058], [100.276185, 5.296303]]}}, {"type": "Feature", "properties": {"src": "SZB", "dst": "PKU"}, "geometry": {"type": "LineString", "coordinates": [[101.549004, 3.13058], [101.444321, 0.458647]]}}, {"type": "Feature", "properties": {"src": "SZB", "dst": "SIN"}, "geometry": {"type": "LineString", "coordinates": [[101.549004, 3.13058], [103.994003, 1.35019]]}}, {"type": "Feature", "properties": {"src": "SZB", "dst": "TGG"}, "geometry": {"type": "LineString", "coordinates": [[101.549004, 3.13058], [103.10299682617188, 5.3826398849487305]]}}, {"type": "Feature", "properties": {"src": "SZB", "dst": "USM"}, "geometry": {"type": "LineString", "coordinates": [[101.549004, 3.13058], [100.061996, 9.54779]]}}, {"type": "Feature", "properties": {"src": "TGG", "dst": "SZB"}, "geometry": {"type": "LineString", "coordinates": [[103.10299682617188, 5.3826398849487305], [101.549004, 3.13058]]}}, {"type": "Feature", "properties": {"src": "USM", "dst": "PEN"}, "geometry": {"type": "LineString", "coordinates": [[100.061996, 9.54779], [100.276185, 5.296303]]}}, {"type": "Feature", "properties": {"src": "USM", "dst": "SZB"}, "geometry": {"type": "LineString", "coordinates": [[100.061996, 9.54779], [101.549004, 3.13058]]}}, {"type": "Feature", "properties": {"src": "AMM", "dst": "DWC"}, "geometry": {"type": "LineString", "coordinates": [[35.9931983948, 31.7226009369], [55.16235, 24.896171]]}}, {"type": "Feature", "properties": {"src": "BEY", "dst": "DWC"}, "geometry": {"type": "LineString", "coordinates": [[35.487443, 33.819833], [55.16235, 24.896171]]}}, {"type": "Feature", "properties": {"src": "DOH", "dst": "DWC"}, "geometry": {"type": "LineString", "coordinates": [[51.608056, 25.273056], [55.16235, 24.896171]]}}, {"type": "Feature", "properties": {"src": "DWC", "dst": "AMM"}, "geometry": {"type": "LineString", "coordinates": [[55.16235, 24.896171], [35.9931983948, 31.7226009369]]}}, {"type": "Feature", "properties": {"src": "DWC", "dst": "BEY"}, "geometry": {"type": "LineString", "coordinates": [[55.16235, 24.896171], [35.487443, 33.819833]]}}, {"type": "Feature", "properties": {"src": "DWC", "dst": "DOH"}, "geometry": {"type": "LineString", "coordinates": [[55.16235, 24.896171], [51.608056, 25.273056]]}}, {"type": "Feature", "properties": {"src": "DWC", "dst": "MCT"}, "geometry": {"type": "LineString", "coordinates": [[55.16235, 24.896171], [58.285268, 23.600218]]}}, {"type": "Feature", "properties": {"src": "DXB", "dst": "HBE"}, "geometry": {"type": "LineString", "coordinates": [[55.370992, 25.24979], [29.696437, 30.93249]]}}, {"type": "Feature", "properties": {"src": "DXB", "dst": "JIB"}, "geometry": {"type": "LineString", "coordinates": [[55.370992, 25.24979], [43.1595, 11.5473]]}}, {"type": "Feature", "properties": {"src": "DXB", "dst": "TUU"}, "geometry": {"type": "LineString", "coordinates": [[55.370992, 25.24979], [36.624865, 28.3711]]}}, {"type": "Feature", "properties": {"src": "HBE", "dst": "DXB"}, "geometry": {"type": "LineString", "coordinates": [[29.696437, 30.93249], [55.370992, 25.24979]]}}, {"type": "Feature", "properties": {"src": "MCT", "dst": "DWC"}, "geometry": {"type": "LineString", "coordinates": [[58.285268, 23.600218], [55.16235, 24.896171]]}}, {"type": "Feature", "properties": {"src": "TUU", "dst": "DXB"}, "geometry": {"type": "LineString", "coordinates": [[36.624865, 28.3711], [55.370992, 25.24979]]}}, {"type": "Feature", "properties": {"src": "AMM", "dst": "SHJ"}, "geometry": {"type": "LineString", "coordinates": [[35.9931983948, 31.7226009369], [55.5172, 25.3286]]}}, {"type": "Feature", "properties": {"src": "ATZ", "dst": "SHJ"}, "geometry": {"type": "LineString", "coordinates": [[31.01276, 27.045962], [55.5172, 25.3286]]}}, {"type": "Feature", "properties": {"src": "BEY", "dst": "SHJ"}, "geometry": {"type": "LineString", "coordinates": [[35.487443, 33.819833], [55.5172, 25.3286]]}}, {"type": "Feature", "properties": {"src": "CAI", "dst": "SHJ"}, "geometry": {"type": "LineString", "coordinates": [[31.396694, 30.111534], [55.5172, 25.3286]]}}, {"type": "Feature", "properties": {"src": "DOH", "dst": "SHJ"}, "geometry": {"type": "LineString", "coordinates": [[51.608056, 25.273056], [55.5172, 25.3286]]}}, {"type": "Feature", "properties": {"src": "HBE", "dst": "SHJ"}, "geometry": {"type": "LineString", "coordinates": [[29.696437, 30.93249], [55.5172, 25.3286]]}}, {"type": "Feature", "properties": {"src": "HMB", "dst": "SHJ"}, "geometry": {"type": "LineString", "coordinates": [[31.743017, 26.342515], [55.5172, 25.3286]]}}, {"type": "Feature", "properties": {"src": "LRR", "dst": "SHJ"}, "geometry": {"type": "LineString", "coordinates": [[54.383301, 27.6747], [55.5172, 25.3286]]}}, {"type": "Feature", "properties": {"src": "MCT", "dst": "SHJ"}, "geometry": {"type": "LineString", "coordinates": [[58.285268, 23.600218], [55.5172, 25.3286]]}}, {"type": "Feature", "properties": {"src": "SHJ", "dst": "AMM"}, "geometry": {"type": "LineString", "coordinates": [[55.5172, 25.3286], [35.9931983948, 31.7226009369]]}}, {"type": "Feature", "properties": {"src": "SHJ", "dst": "ATZ"}, "geometry": {"type": "LineString", "coordinates": [[55.5172, 25.3286], [31.01276, 27.045962]]}}, {"type": "Feature", "properties": {"src": "SHJ", "dst": "BEY"}, "geometry": {"type": "LineString", "coordinates": [[55.5172, 25.3286], [35.487443, 33.819833]]}}, {"type": "Feature", "properties": {"src": "SHJ", "dst": "CAI"}, "geometry": {"type": "LineString", "coordinates": [[55.5172, 25.3286], [31.396694, 30.111534]]}}, {"type": "Feature", "properties": {"src": "SHJ", "dst": "DOH"}, "geometry": {"type": "LineString", "coordinates": [[55.5172, 25.3286], [51.608056, 25.273056]]}}, {"type": "Feature", "properties": {"src": "SHJ", "dst": "HBE"}, "geometry": {"type": "LineString", "coordinates": [[55.5172, 25.3286], [29.696437, 30.93249]]}}, {"type": "Feature", "properties": {"src": "SHJ", "dst": "HMB"}, "geometry": {"type": "LineString", "coordinates": [[55.5172, 25.3286], [31.743017, 26.342515]]}}, {"type": "Feature", "properties": {"src": "SHJ", "dst": "LRR"}, "geometry": {"type": "LineString", "coordinates": [[55.5172, 25.3286], [54.383301, 27.6747]]}}, {"type": "Feature", "properties": {"src": "SHJ", "dst": "MCT"}, "geometry": {"type": "LineString", "coordinates": [[55.5172, 25.3286], [58.285268, 23.600218]]}}, {"type": "Feature", "properties": {"src": "SHJ", "dst": "SYZ"}, "geometry": {"type": "LineString", "coordinates": [[55.5172, 25.3286], [52.589802, 29.5392]]}}, {"type": "Feature", "properties": {"src": "SYZ", "dst": "SHJ"}, "geometry": {"type": "LineString", "coordinates": [[52.589802, 29.5392], [55.5172, 25.3286]]}}, {"type": "Feature", "properties": {"src": "PKU", "dst": "SIN"}, "geometry": {"type": "LineString", "coordinates": [[101.444321, 0.458647], [103.994003, 1.35019]]}}, {"type": "Feature", "properties": {"src": "PLM", "dst": "SIN"}, "geometry": {"type": "LineString", "coordinates": [[104.698147, -2.897653], [103.994003, 1.35019]]}}, {"type": "Feature", "properties": {"src": "SIN", "dst": "PKU"}, "geometry": {"type": "LineString", "coordinates": [[103.994003, 1.35019], [101.444321, 0.458647]]}}, {"type": "Feature", "properties": {"src": "SIN", "dst": "PLM"}, "geometry": {"type": "LineString", "coordinates": [[103.994003, 1.35019], [104.698147, -2.897653]]}}, {"type": "Feature", "properties": {"src": "BDH", "dst": "SYZ"}, "geometry": {"type": "LineString", "coordinates": [[54.82484, 26.532283], [52.589802, 29.5392]]}}, {"type": "Feature", "properties": {"src": "BND", "dst": "ZBR"}, "geometry": {"type": "LineString", "coordinates": [[56.3778, 27.2183], [60.382167, 25.44319]]}}, {"type": "Feature", "properties": {"src": "DOH", "dst": "LRR"}, "geometry": {"type": "LineString", "coordinates": [[51.608056, 25.273056], [54.383301, 27.6747]]}}, {"type": "Feature", "properties": {"src": "DOH", "dst": "SYZ"}, "geometry": {"type": "LineString", "coordinates": [[51.608056, 25.273056], [52.589802, 29.5392]]}}, {"type": "Feature", "properties": {"src": "KER", "dst": "ZAH"}, "geometry": {"type": "LineString", "coordinates": [[56.949692, 30.271276], [60.9062, 29.4757]]}}, {"type": "Feature", "properties": {"src": "LRR", "dst": "DOH"}, "geometry": {"type": "LineString", "coordinates": [[54.383301, 27.6747], [51.608056, 25.273056]]}}, {"type": "Feature", "properties": {"src": "SYZ", "dst": "BDH"}, "geometry": {"type": "LineString", "coordinates": [[52.589802, 29.5392], [54.82484, 26.532283]]}}, {"type": "Feature", "properties": {"src": "SYZ", "dst": "DOH"}, "geometry": {"type": "LineString", "coordinates": [[52.589802, 29.5392], [51.608056, 25.273056]]}}, {"type": "Feature", "properties": {"src": "ZAH", "dst": "KER"}, "geometry": {"type": "LineString", "coordinates": [[60.9062, 29.4757], [56.949692, 30.271276]]}}, {"type": "Feature", "properties": {"src": "ZAH", "dst": "ZBR"}, "geometry": {"type": "LineString", "coordinates": [[60.9062, 29.4757], [60.382167, 25.44319]]}}, {"type": "Feature", "properties": {"src": "ZBR", "dst": "BND"}, "geometry": {"type": "LineString", "coordinates": [[60.382167, 25.44319], [56.3778, 27.2183]]}}, {"type": "Feature", "properties": {"src": "ZBR", "dst": "ZAH"}, "geometry": {"type": "LineString", "coordinates": [[60.382167, 25.44319], [60.9062, 29.4757]]}}, {"type": "Feature", "properties": {"src": "ADD", "dst": "SAH"}, "geometry": {"type": "LineString", "coordinates": [[38.799301, 8.97789], [44.2197, 15.4763]]}}, {"type": "Feature", "properties": {"src": "ADE", "dst": "AMM"}, "geometry": {"type": "LineString", "coordinates": [[45.029976, 12.829564], [35.9931983948, 31.7226009369]]}}, {"type": "Feature", "properties": {"src": "ADE", "dst": "AUH"}, "geometry": {"type": "LineString", "coordinates": [[45.029976, 12.829564], [54.649237, 24.440966]]}}, {"type": "Feature", "properties": {"src": "ADE", "dst": "CAI"}, "geometry": {"type": "LineString", "coordinates": [[45.029976, 12.829564], [31.396694, 30.111534]]}}, {"type": "Feature", "properties": {"src": "ADE", "dst": "DOH"}, "geometry": {"type": "LineString", "coordinates": [[45.029976, 12.829564], [51.608056, 25.273056]]}}, {"type": "Feature", "properties": {"src": "ADE", "dst": "DXB"}, "geometry": {"type": "LineString", "coordinates": [[45.029976, 12.829564], [55.370992, 25.24979]]}}, {"type": "Feature", "properties": {"src": "AMM", "dst": "ADE"}, "geometry": {"type": "LineString", "coordinates": [[35.9931983948, 31.7226009369], [45.029976, 12.829564]]}}, {"type": "Feature", "properties": {"src": "AMM", "dst": "BEY"}, "geometry": {"type": "LineString", "coordinates": [[35.9931983948, 31.7226009369], [35.487443, 33.819833]]}}, {"type": "Feature", "properties": {"src": "AMM", "dst": "SAH"}, "geometry": {"type": "LineString", "coordinates": [[35.9931983948, 31.7226009369], [44.2197, 15.4763]]}}, {"type": "Feature", "properties": {"src": "ASM", "dst": "SAH"}, "geometry": {"type": "LineString", "coordinates": [[38.910702, 15.2919], [44.2197, 15.4763]]}}, {"type": "Feature", "properties": {"src": "AUH", "dst": "ADE"}, "geometry": {"type": "LineString", "coordinates": [[54.649237, 24.440966], [45.029976, 12.829564]]}}, {"type": "Feature", "properties": {"src": "BEY", "dst": "AMM"}, "geometry": {"type": "LineString", "coordinates": [[35.487443, 33.819833], [35.9931983948, 31.7226009369]]}}, {"type": "Feature", "properties": {"src": "BEY", "dst": "SAH"}, "geometry": {"type": "LineString", "coordinates": [[35.487443, 33.819833], [44.2197, 15.4763]]}}, {"type": "Feature", "properties": {"src": "CAI", "dst": "ADE"}, "geometry": {"type": "LineString", "coordinates": [[31.396694, 30.111534], [45.029976, 12.829564]]}}, {"type": "Feature", "properties": {"src": "CAI", "dst": "SAH"}, "geometry": {"type": "LineString", "coordinates": [[31.396694, 30.111534], [44.2197, 15.4763]]}}, {"type": "Feature", "properties": {"src": "CAI", "dst": "TAI"}, "geometry": {"type": "LineString", "coordinates": [[31.396694, 30.111534], [44.139099, 13.686]]}}, {"type": "Feature", "properties": {"src": "DOH", "dst": "ADE"}, "geometry": {"type": "LineString", "coordinates": [[51.608056, 25.273056], [45.029976, 12.829564]]}}, {"type": "Feature", "properties": {"src": "DOH", "dst": "SAH"}, "geometry": {"type": "LineString", "coordinates": [[51.608056, 25.273056], [44.2197, 15.4763]]}}, {"type": "Feature", "properties": {"src": "DXB", "dst": "ADE"}, "geometry": {"type": "LineString", "coordinates": [[55.370992, 25.24979], [45.029976, 12.829564]]}}, {"type": "Feature", "properties": {"src": "SAH", "dst": "ADD"}, "geometry": {"type": "LineString", "coordinates": [[44.2197, 15.4763], [38.799301, 8.97789]]}}, {"type": "Feature", "properties": {"src": "SAH", "dst": "AMM"}, "geometry": {"type": "LineString", "coordinates": [[44.2197, 15.4763], [35.9931983948, 31.7226009369]]}}, {"type": "Feature", "properties": {"src": "SAH", "dst": "ASM"}, "geometry": {"type": "LineString", "coordinates": [[44.2197, 15.4763], [38.910702, 15.2919]]}}, {"type": "Feature", "properties": {"src": "SAH", "dst": "BEY"}, "geometry": {"type": "LineString", "coordinates": [[44.2197, 15.4763], [35.487443, 33.819833]]}}, {"type": "Feature", "properties": {"src": "SAH", "dst": "CAI"}, "geometry": {"type": "LineString", "coordinates": [[44.2197, 15.4763], [31.396694, 30.111534]]}}, {"type": "Feature", "properties": {"src": "SAH", "dst": "JIB"}, "geometry": {"type": "LineString", "coordinates": [[44.2197, 15.4763], [43.1595, 11.5473]]}}, {"type": "Feature", "properties": {"src": "TAI", "dst": "CAI"}, "geometry": {"type": "LineString", "coordinates": [[44.139099, 13.686], [31.396694, 30.111534]]}}, {"type": "Feature", "properties": {"src": "AMM", "dst": "TLV"}, "geometry": {"type": "LineString", "coordinates": [[35.9931983948, 31.7226009369], [34.8867, 32.011398]]}}, {"type": "Feature", "properties": {"src": "TLV", "dst": "AMM"}, "geometry": {"type": "LineString", "coordinates": [[34.8867, 32.011398], [35.9931983948, 31.7226009369]]}}, {"type": "Feature", "properties": {"src": "BTH", "dst": "NTX"}, "geometry": {"type": "LineString", "coordinates": [[104.119003, 1.12103], [108.388, 3.90871]]}}, {"type": "Feature", "properties": {"src": "BTH", "dst": "PDG"}, "geometry": {"type": "LineString", "coordinates": [[104.119003, 1.12103], [100.280384, -0.785964]]}}, {"type": "Feature", "properties": {"src": "BTH", "dst": "PGK"}, "geometry": {"type": "LineString", "coordinates": [[104.119003, 1.12103], [106.139, -2.1622]]}}, {"type": "Feature", "properties": {"src": "BTH", "dst": "PKU"}, "geometry": {"type": "LineString", "coordinates": [[104.119003, 1.12103], [101.444321, 0.458647]]}}, {"type": "Feature", "properties": {"src": "BTH", "dst": "PLM"}, "geometry": {"type": "LineString", "coordinates": [[104.119003, 1.12103], [104.698147, -2.897653]]}}, {"type": "Feature", "properties": {"src": "NTX", "dst": "BTH"}, "geometry": {"type": "LineString", "coordinates": [[108.388, 3.90871], [104.119003, 1.12103]]}}, {"type": "Feature", "properties": {"src": "PDG", "dst": "BTH"}, "geometry": {"type": "LineString", "coordinates": [[100.280384, -0.785964], [104.119003, 1.12103]]}}, {"type": "Feature", "properties": {"src": "PGK", "dst": "BTH"}, "geometry": {"type": "LineString", "coordinates": [[106.139, -2.1622], [104.119003, 1.12103]]}}, {"type": "Feature", "properties": {"src": "PKU", "dst": "BTH"}, "geometry": {"type": "LineString", "coordinates": [[101.444321, 0.458647], [104.119003, 1.12103]]}}, {"type": "Feature", "properties": {"src": "PLM", "dst": "BTH"}, "geometry": {"type": "LineString", "coordinates": [[104.698147, -2.897653], [104.119003, 1.12103]]}}, {"type": "Feature", "properties": {"src": "BBO", "dst": "JIB"}, "geometry": {"type": "LineString", "coordinates": [[44.936723, 10.385035], [43.1595, 11.5473]]}}, {"type": "Feature", "properties": {"src": "DXB", "dst": "BBO"}, "geometry": {"type": "LineString", "coordinates": [[55.370992, 25.24979], [44.936723, 10.385035]]}}, {"type": "Feature", "properties": {"src": "JIB", "dst": "HGA"}, "geometry": {"type": "LineString", "coordinates": [[43.1595, 11.5473], [44.083469, 9.514082]]}}, {"type": "Feature", "properties": {"src": "EOH", "dst": "IBE"}, "geometry": {"type": "LineString", "coordinates": [[-75.590597, 6.219686], [-75.1333, 4.42161]]}}, {"type": "Feature", "properties": {"src": "EOH", "dst": "MTR"}, "geometry": {"type": "LineString", "coordinates": [[-75.590597, 6.219686], [-75.8258, 8.82374]]}}, {"type": "Feature", "properties": {"src": "EOH", "dst": "PEI"}, "geometry": {"type": "LineString", "coordinates": [[-75.590597, 6.219686], [-75.7395, 4.81267]]}}, {"type": "Feature", "properties": {"src": "IBE", "dst": "EOH"}, "geometry": {"type": "LineString", "coordinates": [[-75.1333, 4.42161], [-75.590597, 6.219686]]}}, {"type": "Feature", "properties": {"src": "MTR", "dst": "EOH"}, "geometry": {"type": "LineString", "coordinates": [[-75.8258, 8.82374], [-75.590597, 6.219686]]}}, {"type": "Feature", "properties": {"src": "PEI", "dst": "EOH"}, "geometry": {"type": "LineString", "coordinates": [[-75.7395, 4.81267], [-75.590597, 6.219686]]}}, {"type": "Feature", "properties": {"src": "GLF", "dst": "SJO"}, "geometry": {"type": "LineString", "coordinates": [[-83.182198, 8.65401], [-84.208801, 9.99386]]}}, {"type": "Feature", "properties": {"src": "PJM", "dst": "GLF"}, "geometry": {"type": "LineString", "coordinates": [[-83.30000305175781, 8.533329963684082], [-83.182198, 8.65401]]}}, {"type": "Feature", "properties": {"src": "SJO", "dst": "PMZ"}, "geometry": {"type": "LineString", "coordinates": [[-84.208801, 9.99386], [-83.468597, 8.95103]]}}, {"type": "Feature", "properties": {"src": "ASW", "dst": "CAI"}, "geometry": {"type": "LineString", "coordinates": [[32.820382, 23.961075], [31.396694, 30.111534]]}}, {"type": "Feature", "properties": {"src": "ATZ", "dst": "CAI"}, "geometry": {"type": "LineString", "coordinates": [[31.01276, 27.045962], [31.396694, 30.111534]]}}, {"type": "Feature", "properties": {"src": "CAI", "dst": "ASW"}, "geometry": {"type": "LineString", "coordinates": [[31.396694, 30.111534], [32.820382, 23.961075]]}}, {"type": "Feature", "properties": {"src": "CAI", "dst": "ATZ"}, "geometry": {"type": "LineString", "coordinates": [[31.396694, 30.111534], [31.01276, 27.045962]]}}, {"type": "Feature", "properties": {"src": "CAI", "dst": "HBE"}, "geometry": {"type": "LineString", "coordinates": [[31.396694, 30.111534], [29.696437, 30.93249]]}}, {"type": "Feature", "properties": {"src": "CAI", "dst": "HMB"}, "geometry": {"type": "LineString", "coordinates": [[31.396694, 30.111534], [31.743017, 26.342515]]}}, {"type": "Feature", "properties": {"src": "CAI", "dst": "HRG"}, "geometry": {"type": "LineString", "coordinates": [[31.396694, 30.111534], [33.796692, 27.176776]]}}, {"type": "Feature", "properties": {"src": "CAI", "dst": "LXR"}, "geometry": {"type": "LineString", "coordinates": [[31.396694, 30.111534], [32.706446, 25.671018]]}}, {"type": "Feature", "properties": {"src": "CAI", "dst": "SSH"}, "geometry": {"type": "LineString", "coordinates": [[31.396694, 30.111534], [34.394717, 27.977272]]}}, {"type": "Feature", "properties": {"src": "HBE", "dst": "CAI"}, "geometry": {"type": "LineString", "coordinates": [[29.696437, 30.93249], [31.396694, 30.111534]]}}, {"type": "Feature", "properties": {"src": "HBE", "dst": "SSH"}, "geometry": {"type": "LineString", "coordinates": [[29.696437, 30.93249], [34.394717, 27.977272]]}}, {"type": "Feature", "properties": {"src": "HMB", "dst": "CAI"}, "geometry": {"type": "LineString", "coordinates": [[31.743017, 26.342515], [31.396694, 30.111534]]}}, {"type": "Feature", "properties": {"src": "HRG", "dst": "CAI"}, "geometry": {"type": "LineString", "coordinates": [[33.796692, 27.176776], [31.396694, 30.111534]]}}, {"type": "Feature", "properties": {"src": "HRG", "dst": "SSH"}, "geometry": {"type": "LineString", "coordinates": [[33.796692, 27.176776], [34.394717, 27.977272]]}}, {"type": "Feature", "properties": {"src": "LXR", "dst": "CAI"}, "geometry": {"type": "LineString", "coordinates": [[32.706446, 25.671018], [31.396694, 30.111534]]}}, {"type": "Feature", "properties": {"src": "SSH", "dst": "CAI"}, "geometry": {"type": "LineString", "coordinates": [[34.394717, 27.977272], [31.396694, 30.111534]]}}, {"type": "Feature", "properties": {"src": "SSH", "dst": "HBE"}, "geometry": {"type": "LineString", "coordinates": [[34.394717, 27.977272], [29.696437, 30.93249]]}}, {"type": "Feature", "properties": {"src": "BEY", "dst": "CAI"}, "geometry": {"type": "LineString", "coordinates": [[35.487443, 33.819833], [31.396694, 30.111534]]}}, {"type": "Feature", "properties": {"src": "BEY", "dst": "DOH"}, "geometry": {"type": "LineString", "coordinates": [[35.487443, 33.819833], [51.608056, 25.273056]]}}, {"type": "Feature", "properties": {"src": "CAI", "dst": "BEY"}, "geometry": {"type": "LineString", "coordinates": [[31.396694, 30.111534], [35.487443, 33.819833]]}}, {"type": "Feature", "properties": {"src": "DOH", "dst": "BEY"}, "geometry": {"type": "LineString", "coordinates": [[51.608056, 25.273056], [35.487443, 33.819833]]}}, {"type": "Feature", "properties": {"src": "DOH", "dst": "KUL"}, "geometry": {"type": "LineString", "coordinates": [[51.608056, 25.273056], [101.709999, 2.74558]]}}, {"type": "Feature", "properties": {"src": "DWC", "dst": "KUL"}, "geometry": {"type": "LineString", "coordinates": [[55.16235, 24.896171], [101.709999, 2.74558]]}}, {"type": "Feature", "properties": {"src": "KUA", "dst": "KUL"}, "geometry": {"type": "LineString", "coordinates": [[103.20899963378906, 3.7753899097442627], [101.709999, 2.74558]]}}, {"type": "Feature", "properties": {"src": "KUL", "dst": "DOH"}, "geometry": {"type": "LineString", "coordinates": [[101.709999, 2.74558], [51.608056, 25.273056]]}}, {"type": "Feature", "properties": {"src": "KUL", "dst": "DWC"}, "geometry": {"type": "LineString", "coordinates": [[101.709999, 2.74558], [55.16235, 24.896171]]}}, {"type": "Feature", "properties": {"src": "KUL", "dst": "KUA"}, "geometry": {"type": "LineString", "coordinates": [[101.709999, 2.74558], [103.20899963378906, 3.7753899097442627]]}}, {"type": "Feature", "properties": {"src": "KUL", "dst": "MCT"}, "geometry": {"type": "LineString", "coordinates": [[101.709999, 2.74558], [58.285268, 23.600218]]}}, {"type": "Feature", "properties": {"src": "KUL", "dst": "USM"}, "geometry": {"type": "LineString", "coordinates": [[101.709999, 2.74558], [100.061996, 9.54779]]}}, {"type": "Feature", "properties": {"src": "MCT", "dst": "KUL"}, "geometry": {"type": "LineString", "coordinates": [[58.285268, 23.600218], [101.709999, 2.74558]]}}, {"type": "Feature", "properties": {"src": "USM", "dst": "KUL"}, "geometry": {"type": "LineString", "coordinates": [[100.061996, 9.54779], [101.709999, 2.74558]]}}, {"type": "Feature", "properties": {"src": "SIN", "dst": "USM"}, "geometry": {"type": "LineString", "coordinates": [[103.994003, 1.35019], [100.061996, 9.54779]]}}, {"type": "Feature", "properties": {"src": "USM", "dst": "SIN"}, "geometry": {"type": "LineString", "coordinates": [[100.061996, 9.54779], [103.994003, 1.35019]]}}, {"type": "Feature", "properties": {"src": "AMM", "dst": "CAI"}, "geometry": {"type": "LineString", "coordinates": [[35.9931983948, 31.7226009369], [31.396694, 30.111534]]}}, {"type": "Feature", "properties": {"src": "ASM", "dst": "CAI"}, "geometry": {"type": "LineString", "coordinates": [[38.910702, 15.2919], [31.396694, 30.111534]]}}, {"type": "Feature", "properties": {"src": "BEY", "dst": "HBE"}, "geometry": {"type": "LineString", "coordinates": [[35.487443, 33.819833], [29.696437, 30.93249]]}}, {"type": "Feature", "properties": {"src": "CAI", "dst": "AMM"}, "geometry": {"type": "LineString", "coordinates": [[31.396694, 30.111534], [35.9931983948, 31.7226009369]]}}, {"type": "Feature", "properties": {"src": "CAI", "dst": "ASM"}, "geometry": {"type": "LineString", "coordinates": [[31.396694, 30.111534], [38.910702, 15.2919]]}}, {"type": "Feature", "properties": {"src": "CAI", "dst": "DOH"}, "geometry": {"type": "LineString", "coordinates": [[31.396694, 30.111534], [51.608056, 25.273056]]}}, {"type": "Feature", "properties": {"src": "CAI", "dst": "MCT"}, "geometry": {"type": "LineString", "coordinates": [[31.396694, 30.111534], [58.285268, 23.600218]]}}, {"type": "Feature", "properties": {"src": "CAI", "dst": "RMF"}, "geometry": {"type": "LineString", "coordinates": [[31.396694, 30.111534], [34.59245, 25.555548]]}}, {"type": "Feature", "properties": {"src": "DOH", "dst": "CAI"}, "geometry": {"type": "LineString", "coordinates": [[51.608056, 25.273056], [31.396694, 30.111534]]}}, {"type": "Feature", "properties": {"src": "HBE", "dst": "BEY"}, "geometry": {"type": "LineString", "coordinates": [[29.696437, 30.93249], [35.487443, 33.819833]]}}, {"type": "Feature", "properties": {"src": "HBE", "dst": "HRG"}, "geometry": {"type": "LineString", "coordinates": [[29.696437, 30.93249], [33.796692, 27.176776]]}}, {"type": "Feature", "properties": {"src": "HRG", "dst": "HBE"}, "geometry": {"type": "LineString", "coordinates": [[33.796692, 27.176776], [29.696437, 30.93249]]}}, {"type": "Feature", "properties": {"src": "MCT", "dst": "CAI"}, "geometry": {"type": "LineString", "coordinates": [[58.285268, 23.600218], [31.396694, 30.111534]]}}, {"type": "Feature", "properties": {"src": "RMF", "dst": "CAI"}, "geometry": {"type": "LineString", "coordinates": [[34.59245, 25.555548], [31.396694, 30.111534]]}}, {"type": "Feature", "properties": {"src": "HKT", "dst": "USM"}, "geometry": {"type": "LineString", "coordinates": [[98.3174, 8.113257], [100.061996, 9.54779]]}}, {"type": "Feature", "properties": {"src": "KBV", "dst": "USM"}, "geometry": {"type": "LineString", "coordinates": [[98.988955, 8.095591], [100.061996, 9.54779]]}}, {"type": "Feature", "properties": {"src": "USM", "dst": "HKT"}, "geometry": {"type": "LineString", "coordinates": [[100.061996, 9.54779], [98.3174, 8.113257]]}}, {"type": "Feature", "properties": {"src": "USM", "dst": "KBV"}, "geometry": {"type": "LineString", "coordinates": [[100.061996, 9.54779], [98.988955, 8.095591]]}}, {"type": "Feature", "properties": {"src": "DXB", "dst": "GSM"}, "geometry": {"type": "LineString", "coordinates": [[55.370992, 25.24979], [55.902353, 26.754639]]}}, {"type": "Feature", "properties": {"src": "GSM", "dst": "DXB"}, "geometry": {"type": "LineString", "coordinates": [[55.902353, 26.754639], [55.370992, 25.24979]]}}, {"type": "Feature", "properties": {"src": "GSM", "dst": "KIH"}, "geometry": {"type": "LineString", "coordinates": [[55.902353, 26.754639], [53.980462, 26.525427]]}}, {"type": "Feature", "properties": {"src": "KIH", "dst": "GSM"}, "geometry": {"type": "LineString", "coordinates": [[53.980462, 26.525427], [55.902353, 26.754639]]}}, {"type": "Feature", "properties": {"src": "SXI", "dst": "SYZ"}, "geometry": {"type": "LineString", "coordinates": [[54.539398, 25.908899], [52.589802, 29.5392]]}}, {"type": "Feature", "properties": {"src": "SYZ", "dst": "SXI"}, "geometry": {"type": "LineString", "coordinates": [[52.589802, 29.5392], [54.539398, 25.908899]]}}, {"type": "Feature", "properties": {"src": "ADD", "dst": "DOH"}, "geometry": {"type": "LineString", "coordinates": [[38.799301, 8.97789], [51.608056, 25.273056]]}}, {"type": "Feature", "properties": {"src": "AMM", "dst": "DOH"}, "geometry": {"type": "LineString", "coordinates": [[35.9931983948, 31.7226009369], [51.608056, 25.273056]]}}, {"type": "Feature", "properties": {"src": "DOH", "dst": "ADD"}, "geometry": {"type": "LineString", "coordinates": [[51.608056, 25.273056], [38.799301, 8.97789]]}}, {"type": "Feature", "properties": {"src": "DOH", "dst": "AMM"}, "geometry": {"type": "LineString", "coordinates": [[51.608056, 25.273056], [35.9931983948, 31.7226009369]]}}, {"type": "Feature", "properties": {"src": "DOH", "dst": "HBE"}, "geometry": {"type": "LineString", "coordinates": [[51.608056, 25.273056], [29.696437, 30.93249]]}}, {"type": "Feature", "properties": {"src": "DOH", "dst": "LCA"}, "geometry": {"type": "LineString", "coordinates": [[51.608056, 25.273056], [33.624901, 34.875099]]}}, {"type": "Feature", "properties": {"src": "DOH", "dst": "LXR"}, "geometry": {"type": "LineString", "coordinates": [[51.608056, 25.273056], [32.706446, 25.671018]]}}, {"type": "Feature", "properties": {"src": "DOH", "dst": "SIN"}, "geometry": {"type": "LineString", "coordinates": [[51.608056, 25.273056], [103.994003, 1.35019]]}}, {"type": "Feature", "properties": {"src": "HBE", "dst": "DOH"}, "geometry": {"type": "LineString", "coordinates": [[29.696437, 30.93249], [51.608056, 25.273056]]}}, {"type": "Feature", "properties": {"src": "LCA", "dst": "DOH"}, "geometry": {"type": "LineString", "coordinates": [[33.624901, 34.875099], [51.608056, 25.273056]]}}, {"type": "Feature", "properties": {"src": "LXR", "dst": "DOH"}, "geometry": {"type": "LineString", "coordinates": [[32.706446, 25.671018], [51.608056, 25.273056]]}}, {"type": "Feature", "properties": {"src": "SAH", "dst": "DOH"}, "geometry": {"type": "LineString", "coordinates": [[44.2197, 15.4763], [51.608056, 25.273056]]}}, {"type": "Feature", "properties": {"src": "SIN", "dst": "DOH"}, "geometry": {"type": "LineString", "coordinates": [[103.994003, 1.35019], [51.608056, 25.273056]]}}, {"type": "Feature", "properties": {"src": "AZI", "dst": "DXB"}, "geometry": {"type": "LineString", "coordinates": [[54.459866, 24.427062], [55.370992, 25.24979]]}}, {"type": "Feature", "properties": {"src": "AZI", "dst": "FJR"}, "geometry": {"type": "LineString", "coordinates": [[54.459866, 24.427062], [56.328061, 25.108411]]}}, {"type": "Feature", "properties": {"src": "AZI", "dst": "XSB"}, "geometry": {"type": "LineString", "coordinates": [[54.459866, 24.427062], [52.580278, 24.283611]]}}, {"type": "Feature", "properties": {"src": "DXB", "dst": "AZI"}, "geometry": {"type": "LineString", "coordinates": [[55.370992, 25.24979], [54.459866, 24.427062]]}}, {"type": "Feature", "properties": {"src": "DXB", "dst": "XSB"}, "geometry": {"type": "LineString", "coordinates": [[55.370992, 25.24979], [52.580278, 24.283611]]}}, {"type": "Feature", "properties": {"src": "FJR", "dst": "AZI"}, "geometry": {"type": "LineString", "coordinates": [[56.328061, 25.108411], [54.459866, 24.427062]]}}, {"type": "Feature", "properties": {"src": "XSB", "dst": "AZI"}, "geometry": {"type": "LineString", "coordinates": [[52.580278, 24.283611], [54.459866, 24.427062]]}}, {"type": "Feature", "properties": {"src": "XSB", "dst": "DXB"}, "geometry": {"type": "LineString", "coordinates": [[52.580278, 24.283611], [55.370992, 25.24979]]}}, {"type": "Feature", "properties": {"src": "AMM", "dst": "AQJ"}, "geometry": {"type": "LineString", "coordinates": [[35.9931983948, 31.7226009369], [35.018101, 29.611601]]}}, {"type": "Feature", "properties": {"src": "AMM", "dst": "LCA"}, "geometry": {"type": "LineString", "coordinates": [[35.9931983948, 31.7226009369], [33.624901, 34.875099]]}}, {"type": "Feature", "properties": {"src": "AMM", "dst": "MCT"}, "geometry": {"type": "LineString", "coordinates": [[35.9931983948, 31.7226009369], [58.285268, 23.600218]]}}, {"type": "Feature", "properties": {"src": "AMM", "dst": "SSH"}, "geometry": {"type": "LineString", "coordinates": [[35.9931983948, 31.7226009369], [34.394717, 27.977272]]}}, {"type": "Feature", "properties": {"src": "AQJ", "dst": "AMM"}, "geometry": {"type": "LineString", "coordinates": [[35.018101, 29.611601], [35.9931983948, 31.7226009369]]}}, {"type": "Feature", "properties": {"src": "LCA", "dst": "AMM"}, "geometry": {"type": "LineString", "coordinates": [[33.624901, 34.875099], [35.9931983948, 31.7226009369]]}}, {"type": "Feature", "properties": {"src": "MCT", "dst": "AMM"}, "geometry": {"type": "LineString", "coordinates": [[58.285268, 23.600218], [35.9931983948, 31.7226009369]]}}, {"type": "Feature", "properties": {"src": "SSH", "dst": "AMM"}, "geometry": {"type": "LineString", "coordinates": [[34.394717, 27.977272], [35.9931983948, 31.7226009369]]}}, {"type": "Feature", "properties": {"src": "SHJ", "dst": "AUH"}, "geometry": {"type": "LineString", "coordinates": [[55.5172, 25.3286], [54.649237, 24.440966]]}}, {"type": "Feature", "properties": {"src": "PGK", "dst": "PLM"}, "geometry": {"type": "LineString", "coordinates": [[106.139, -2.1622], [104.698147, -2.897653]]}}, {"type": "Feature", "properties": {"src": "PLM", "dst": "PGK"}, "geometry": {"type": "LineString", "coordinates": [[104.698147, -2.897653], [106.139, -2.1622]]}}, {"type": "Feature", "properties": {"src": "HDY", "dst": "SIN"}, "geometry": {"type": "LineString", "coordinates": [[100.392998, 6.93321], [103.994003, 1.35019]]}}, {"type": "Feature", "properties": {"src": "SIN", "dst": "HDY"}, "geometry": {"type": "LineString", "coordinates": [[103.994003, 1.35019], [100.392998, 6.93321]]}}, {"type": "Feature", "properties": {"src": "ADE", "dst": "ASM"}, "geometry": {"type": "LineString", "coordinates": [[45.029976, 12.829564], [38.910702, 15.2919]]}}, {"type": "Feature", "properties": {"src": "ASM", "dst": "ADE"}, "geometry": {"type": "LineString", "coordinates": [[38.910702, 15.2919], [45.029976, 12.829564]]}}, {"type": "Feature", "properties": {"src": "MSW", "dst": "ASM"}, "geometry": {"type": "LineString", "coordinates": [[39.370098, 15.67], [38.910702, 15.2919]]}}, {"type": "Feature", "properties": {"src": "PQC", "dst": "VCA"}, "geometry": {"type": "LineString", "coordinates": [[103.99353, 10.169783], [105.709371, 10.083397]]}}, {"type": "Feature", "properties": {"src": "VCA", "dst": "PQC"}, "geometry": {"type": "LineString", "coordinates": [[105.709371, 10.083397], [103.99353, 10.169783]]}}, {"type": "Feature", "properties": {"src": "VCA", "dst": "VCS"}, "geometry": {"type": "LineString", "coordinates": [[105.709371, 10.083397], [106.633003, 8.73183]]}}, {"type": "Feature", "properties": {"src": "VCS", "dst": "VCA"}, "geometry": {"type": "LineString", "coordinates": [[106.633003, 8.73183], [105.709371, 10.083397]]}}, {"type": "Feature", "properties": {"src": "BEY", "dst": "MCT"}, "geometry": {"type": "LineString", "coordinates": [[35.487443, 33.819833], [58.285268, 23.600218]]}}, {"type": "Feature", "properties": {"src": "KHS", "dst": "MCT"}, "geometry": {"type": "LineString", "coordinates": [[56.240601, 26.171], [58.285268, 23.600218]]}}, {"type": "Feature", "properties": {"src": "MCT", "dst": "BEY"}, "geometry": {"type": "LineString", "coordinates": [[58.285268, 23.600218], [35.487443, 33.819833]]}}, {"type": "Feature", "properties": {"src": "MCT", "dst": "KHS"}, "geometry": {"type": "LineString", "coordinates": [[58.285268, 23.600218], [56.240601, 26.171]]}}, {"type": "Feature", "properties": {"src": "ADE", "dst": "BBO"}, "geometry": {"type": "LineString", "coordinates": [[45.029976, 12.829564], [44.936723, 10.385035]]}}, {"type": "Feature", "properties": {"src": "BBO", "dst": "ADE"}, "geometry": {"type": "LineString", "coordinates": [[44.936723, 10.385035], [45.029976, 12.829564]]}}, {"type": "Feature", "properties": {"src": "BBO", "dst": "DXB"}, "geometry": {"type": "LineString", "coordinates": [[44.936723, 10.385035], [55.370992, 25.24979]]}}, {"type": "Feature", "properties": {"src": "BBO", "dst": "SHJ"}, "geometry": {"type": "LineString", "coordinates": [[44.936723, 10.385035], [55.5172, 25.3286]]}}, {"type": "Feature", "properties": {"src": "HGA", "dst": "BBO"}, "geometry": {"type": "LineString", "coordinates": [[44.083469, 9.514082], [44.936723, 10.385035]]}}, {"type": "Feature", "properties": {"src": "SHJ", "dst": "HGA"}, "geometry": {"type": "LineString", "coordinates": [[55.5172, 25.3286], [44.083469, 9.514082]]}}, {"type": "Feature", "properties": {"src": "AUH", "dst": "KIH"}, "geometry": {"type": "LineString", "coordinates": [[54.649237, 24.440966], [53.980462, 26.525427]]}}, {"type": "Feature", "properties": {"src": "DXB", "dst": "KIH"}, "geometry": {"type": "LineString", "coordinates": [[55.370992, 25.24979], [53.980462, 26.525427]]}}, {"type": "Feature", "properties": {"src": "KIH", "dst": "AUH"}, "geometry": {"type": "LineString", "coordinates": [[53.980462, 26.525427], [54.649237, 24.440966]]}}, {"type": "Feature", "properties": {"src": "KIH", "dst": "DXB"}, "geometry": {"type": "LineString", "coordinates": [[53.980462, 26.525427], [55.370992, 25.24979]]}}], "_airports_near_boxes": 242}