{"type": "FeatureCollection", "_note": "approximate centerlines, NOT for navigation", "features": [{"type": "Feature", "properties": {"name": "Hormuz TSS eastbound", "approximate": true}, "geometry": {"type": "LineString", "coordinates": [[56.0, 26.55], [56.45, 26.35], [56.9, 26.2]]}}, {"type": "Feature", "properties": {"name": "Hormuz TSS westbound", "approximate": true}, "geometry": {"type": "LineString", "coordinates": [[56.9, 26.05], [56.45, 26.2], [56.0, 26.4]]}}, {"type": "Feature", "properties": {"name": "Malacca TSS", "approximate": true}, "geometry": {"type": "LineString", "coordinates": [[98.5, 4.5], [100.0, 3.0], [101.5, 2.3], [103.5, 1.3]]}}]}